{"type":"FeatureCollection", "features": [
{"type":"Feature","geometry":{"type":"Polygon","coordinates":[[[3.4852,48.8519],[3.4456,48.8603],[3.369,48.8937],[3.3659,48.9231],[3.3303,48.9087],[3.3048,48.9488],[3.2649,48.9392],[3.2518,48.9724],[3.2312,48.9768],[3.1965,49.0088],[3.161,49.0242],[3.1892,49.046],[3.1536,49.0833],[3.1652,49.0996],[3.0677,49.1144],[3.0295,49.0859],[2.9714,49.089],[2.9406,49.0771],[2.9015,49.0854],[2.8703,49.0702],[2.8093,49.0975],[2.784,49.0886],[2.7536,49.0607],[2.7052,49.065],[2.6732,49.0909],[2.6306,49.1025],[2.5979,49.0818],[2.5311,49.0996],[2.4716,49.1354],[2.4131,49.1524],[2.3463,49.1618],[2.3133,49.1858],[2.2538,49.1526],[2.2198,49.1798],[2.165,49.1785],[2.1133,49.1865],[2.072,49.2041],[2.0018,49.1759],[1.9734,49.1839],[1.8826,49.1625],[1.7955,49.1853],[1.7555,49.1746],[1.7399,49.1921],[1.7297,49.2292],[1.7044,49.2322],[1.6749,49.2115],[1.6577,49.1319],[1.6296,49.11],[1.6233,49.0861],[1.51,49.0671],[1.4465,49.0463],[1.4984,48.9792],[1.5015,48.941],[1.5384,48.9225],[1.5598,48.8821],[1.5588,48.8642],[1.5912,48.8149],[1.5753,48.7912],[1.6265,48.7481],[1.5769,48.7026],[1.6118,48.6895],[1.6013,48.6683],[1.6504,48.6374],[1.6635,48.6165],[1.7188,48.6057],[1.702,48.585],[1.7587,48.5732],[1.7873,48.5537],[1.7758,48.5277],[1.7856,48.4901],[1.8321,48.4676],[1.8717,48.4398],[1.9407,48.4255],[1.9715,48.4016],[1.9868,48.3621],[1.9592,48.3087],[1.9727,48.2882],[2.0413,48.2844],[2.1807,48.3117],[2.2072,48.3418],[2.2462,48.3313],[2.2957,48.3081],[2.3126,48.3308],[2.3582,48.3085],[2.4,48.3157],[2.4233,48.2948],[2.4235,48.2604],[2.4691,48.2553],[2.5069,48.226],[2.5231,48.1949],[2.4832,48.1645],[2.4601,48.1369],[2.4903,48.1266],[2.5375,48.1403],[2.6027,48.1315],[2.6397,48.139],[2.6648,48.1205],[2.7035,48.1242],[2.7552,48.1457],[2.7552,48.1601],[2.7942,48.1689],[2.8012,48.1315],[2.8362,48.1341],[2.8668,48.156],[2.9363,48.1634],[2.9346,48.1759],[2.9731,48.2056],[3.0069,48.2146],[3.0447,48.2716],[3.0159,48.3079],[3.0436,48.3304],[3.0462,48.358],[3.0989,48.3578],[3.1399,48.3726],[3.2003,48.3637],[3.268,48.378],[3.3652,48.3723],[3.3672,48.3943],[3.4148,48.3903],[3.4222,48.4129],[3.3975,48.4245],[3.4065,48.4525],[3.3885,48.4772],[3.4346,48.4903],[3.4142,48.5335],[3.457,48.5296],[3.4858,48.5452],[3.4655,48.5705],[3.5032,48.6046],[3.5585,48.6184],[3.5175,48.6434],[3.4726,48.6366],[3.4427,48.6725],[3.4735,48.6887],[3.4697,48.7379],[3.4366,48.7532],[3.3958,48.7593],[3.4089,48.7839],[3.4339,48.7808],[3.4414,48.8116],[3.485,48.825],[3.4852,48.8519]]]},"properties":{"code":"11","nom":"Île-de-France"}},
{"type":"Feature","geometry":{"type":"Polygon","coordinates":[[[3.0321,46.7949],[3.0589,46.8263],[3.067,46.8818],[3.0503,46.9106],[3.0793,46.9551],[3.0626,46.9792],[3.0752,47.0293],[3.0628,47.0453],[3.0232,47.0626],[3.0314,47.0925],[3.0206,47.1532],[2.978,47.2356],[2.9831,47.2608],[2.9078,47.311],[2.8766,47.3219],[2.8695,47.3399],[2.9195,47.4073],[2.932,47.4395],[2.8998,47.4801],[2.8885,47.5094],[2.8489,47.5375],[2.8602,47.554],[2.8901,47.5526],[2.9143,47.566],[2.9587,47.5574],[2.9644,47.5816],[2.9363,47.5993],[2.9363,47.6367],[2.9542,47.6457],[2.9181,47.6698],[2.9139,47.691],[2.8606,47.7099],[2.8487,47.7258],[2.8702,47.7649],[2.9308,47.7623],[2.9882,47.786],[3.0235,47.7863],[3.0146,47.8327],[3.0318,47.8504],[3.0069,47.8838],[3.0096,47.9054],[3.0505,47.9106],[3.1285,47.971],[3.1242,48.0069],[3.0998,48.0192],[3.08,48.0603],[3.0505,48.0723],[3.0294,48.1333],[3.0122,48.1445],[2.9363,48.1634],[2.8668,48.156],[2.8362,48.1341],[2.8012,48.1315],[2.7942,48.1689],[2.7552,48.1601],[2.7552,48.1457],[2.7035,48.1242],[2.6648,48.1205],[2.6397,48.139],[2.6027,48.1315],[2.5375,48.1403],[2.4903,48.1266],[2.4601,48.1369],[2.4832,48.1645],[2.5231,48.1949],[2.5069,48.226],[2.4691,48.2553],[2.4235,48.2604],[2.4233,48.2948],[2.4,48.3157],[2.3582,48.3085],[2.3126,48.3308],[2.2957,48.3081],[2.2462,48.3313],[2.2072,48.3418],[2.1807,48.3117],[2.0413,48.2844],[1.9727,48.2882],[1.9592,48.3087],[1.9868,48.3621],[1.9715,48.4016],[1.9407,48.4255],[1.8717,48.4398],[1.8321,48.4676],[1.7856,48.4901],[1.7758,48.5277],[1.7873,48.5537],[1.7587,48.5732],[1.702,48.585],[1.7188,48.6057],[1.6635,48.6165],[1.6504,48.6374],[1.6013,48.6683],[1.6118,48.6895],[1.5769,48.7026],[1.6265,48.7481],[1.5753,48.7912],[1.5912,48.8149],[1.5588,48.8642],[1.5598,48.8821],[1.5384,48.9225],[1.5015,48.941],[1.4613,48.9376],[1.4526,48.9187],[1.4713,48.8978],[1.4606,48.8723],[1.4065,48.8611],[1.3663,48.835],[1.3564,48.816],[1.3774,48.7893],[1.3212,48.7607],[1.2969,48.7682],[1.163,48.7693],[1.1512,48.7858],[1.1185,48.7861],[1.1187,48.7546],[1.0697,48.7488],[1.0167,48.7284],[0.9615,48.7257],[0.9212,48.7092],[0.8726,48.7132],[0.8688,48.6988],[0.8094,48.6648],[0.8252,48.6486],[0.8196,48.6099],[0.8471,48.6095],[0.8496,48.5843],[0.9388,48.5506],[0.9229,48.5384],[0.9666,48.5228],[0.939,48.4608],[0.9584,48.4426],[0.9441,48.3996],[0.8837,48.3567],[0.8285,48.3425],[0.7854,48.3404],[0.7689,48.3132],[0.7964,48.2871],[0.7859,48.2711],[0.8302,48.2143],[0.7977,48.1945],[0.8395,48.1657],[0.8599,48.1676],[0.9116,48.1489],[0.9103,48.136],[0.852,48.1316],[0.843,48.0726],[0.8028,48.0716],[0.7941,48.0486],[0.8072,48.0325],[0.8419,48.0302],[0.819,47.986],[0.8487,47.9426],[0.8187,47.935],[0.813,47.9136],[0.7612,47.8998],[0.7749,47.8438],[0.7264,47.7992],[0.701,47.7901],[0.6513,47.7552],[0.6212,47.7483],[0.593,47.7036],[0.5969,47.6728],[0.5438,47.6563],[0.4566,47.6388],[0.4239,47.6178],[0.3963,47.6409],[0.3642,47.6253],[0.3944,47.5944],[0.3785,47.5685],[0.3221,47.5952],[0.2324,47.6058],[0.2344,47.5801],[0.2151,47.57],[0.1995,47.5412],[0.2201,47.502],[0.1809,47.4534],[0.1853,47.4247],[0.138,47.3362],[0.1175,47.3323],[0.0858,47.2899],[0.0679,47.2473],[0.0666,47.1898],[0.0538,47.1637],[0.0764,47.1239],[0.1047,47.1208],[0.201,47.0914],[0.1742,47.0713],[0.208,47.0532],[0.2455,47.0713],[0.2982,47.0539],[0.3116,46.9963],[0.2981,46.9836],[0.3112,46.9378],[0.3477,46.9366],[0.3665,46.9496],[0.4387,46.9296],[0.4869,46.9543],[0.5984,46.9568],[0.5783,46.9798],[0.5764,47.0045],[0.6189,47.0075],[0.6369,46.9853],[0.6926,46.9743],[0.7062,46.9362],[0.7043,46.9033],[0.7675,46.8515],[0.8093,46.8279],[0.8163,46.7878],[0.87,46.7454],[0.9132,46.7257],[0.928,46.6954],[0.9095,46.6823],[0.9087,46.6486],[0.8939,46.6286],[0.9159,46.5966],[0.9893,46.5654],[1.0148,46.5678],[1.0229,46.5359],[1.0657,46.5399],[1.1041,46.5335],[1.1459,46.5064],[1.1355,46.4709],[1.1518,46.4487],[1.2127,46.4322],[1.1932,46.4098],[1.2196,46.366],[1.2604,46.3788],[1.3031,46.371],[1.3267,46.3957],[1.356,46.4001],[1.409,46.3613],[1.4654,46.3748],[1.5001,46.3988],[1.5219,46.4264],[1.5441,46.4191],[1.5462,46.3935],[1.5954,46.4086],[1.645,46.3892],[1.6836,46.4182],[1.727,46.3902],[1.7603,46.4271],[1.7543,46.4521],[1.7984,46.4548],[1.8275,46.4282],[1.8546,46.4339],[1.9242,46.432],[1.9819,46.44],[1.9931,46.4309],[2.0742,46.4198],[2.1459,46.4243],[2.2811,46.4204],[2.2834,46.4493],[2.3055,46.4754],[2.3683,46.5184],[2.4499,46.5207],[2.4829,46.5327],[2.4972,46.5215],[2.5367,46.5197],[2.615,46.5533],[2.5942,46.5972],[2.5757,46.6113],[2.5967,46.6372],[2.5873,46.6652],[2.6286,46.6595],[2.6446,46.6904],[2.7009,46.721],[2.705,46.7394],[2.7859,46.7225],[2.8275,46.7353],[2.9605,46.8037],[3.0321,46.7949]]]},"properties":{"code":"24","nom":"Centre-Val de Loire"}},
{"type":"Feature","geometry":{"type":"Polygon","coordinates":[[[3.0321,46.7949],[3.0491,46.7581],[3.0843,46.7374],[3.1298,46.7272],[3.1657,46.6917],[3.2044,46.6788],[3.2698,46.7167],[3.3009,46.7163],[3.314,46.6888],[3.3658,46.6896],[3.3786,46.7124],[3.4182,46.7105],[3.4531,46.6901],[3.447,46.6608],[3.4818,46.6507],[3.5144,46.6836],[3.5612,46.6886],[3.5482,46.7062],[3.598,46.724],[3.5837,46.7535],[3.6201,46.7541],[3.6375,46.7084],[3.6708,46.6717],[3.697,46.6606],[3.7139,46.614],[3.7324,46.6049],[3.7419,46.5395],[3.7691,46.5392],[3.8018,46.5199],[3.8646,46.5097],[3.8618,46.4921],[3.8905,46.4813],[3.919,46.4961],[3.9581,46.4906],[3.9989,46.4649],[3.9961,46.4274],[3.9772,46.3992],[3.9916,46.3696],[3.984,46.3187],[3.9495,46.3139],[3.9313,46.2959],[3.8972,46.2925],[3.9049,46.2379],[3.8901,46.2145],[3.9184,46.2029],[3.9726,46.2027],[3.9859,46.1713],[4.0275,46.1694],[4.0589,46.1881],[4.1038,46.1984],[4.1334,46.1773],[4.187,46.1746],[4.2556,46.1858],[4.2499,46.1582],[4.3457,46.1878],[4.3894,46.2133],[4.3854,46.2468],[4.3975,46.2833],[4.427,46.3028],[4.504,46.2671],[4.5729,46.2759],[4.6186,46.2648],[4.6353,46.2993],[4.6792,46.3063],[4.7104,46.2786],[4.6791,46.2599],[4.7208,46.2443],[4.7273,46.1791],[4.7802,46.1767],[4.811,46.2599],[4.8534,46.3299],[4.8515,46.3563],[4.8882,46.403],[4.8918,46.4399],[4.9158,46.4654],[4.9156,46.4889],[4.9356,46.5142],[5.0014,46.5119],[5.0564,46.4839],[5.1093,46.4915],[5.1727,46.5135],[5.2,46.5075],[5.2255,46.4683],[5.2837,46.4456],[5.3149,46.4451],[5.307,46.4148],[5.3671,46.3887],[5.3735,46.3522],[5.4168,46.3453],[5.4354,46.3195],[5.4753,46.3154],[5.4568,46.2745],[5.4739,46.2643],[5.542,46.2702],[5.5652,46.2935],[5.5974,46.2972],[5.6177,46.3291],[5.6493,46.341],[5.6846,46.3109],[5.7147,46.3088],[5.7252,46.2607],[5.7657,46.2683],[5.8531,46.2615],[5.9092,46.2839],[5.9218,46.3122],[5.9409,46.31],[5.9909,46.365],[6.0282,46.3856],[6.064,46.4162],[6.0858,46.441],[6.0766,46.4671],[6.1127,46.5096],[6.1565,46.5455],[6.1108,46.5763],[6.2077,46.6357],[6.282,46.6906],[6.3413,46.7101],[6.3951,46.7483],[6.4395,46.7626],[6.4586,46.7885],[6.4348,46.8015],[6.4426,46.8324],[6.4601,46.8517],[6.4646,46.8902],[6.4327,46.9286],[6.4967,46.9742],[6.5643,46.9796],[6.6404,47.0028],[6.6587,47.0266],[6.7117,47.0481],[6.7,47.0697],[6.7411,47.0911],[6.7399,47.1081],[6.8057,47.1304],[6.8584,47.1644],[6.88,47.2003],[6.9554,47.2433],[6.9409,47.2867],[7.0092,47.3022],[7.0097,47.3244],[7.0568,47.3346],[7.0483,47.3622],[7.0116,47.3728],[6.9942,47.3631],[6.879,47.3577],[6.8854,47.3746],[6.9384,47.406],[6.9405,47.4334],[6.9891,47.4477],[7.0005,47.4671],[6.9879,47.4948],[7.0164,47.5037],[7.0793,47.4889],[7.1304,47.503],[7.1359,47.5371],[7.1101,47.549],[7.1055,47.5689],[7.0704,47.6007],[7.0059,47.6024],[7.0176,47.6499],[7.0401,47.6857],[7.0265,47.701],[7.0341,47.7251],[7.0131,47.7413],[6.9723,47.7515],[6.9404,47.7716],[6.8635,47.7852],[6.8503,47.8071],[6.7927,47.8295],[6.7826,47.8513],[6.7378,47.8617],[6.6496,47.9018],[6.6419,47.9178],[6.6029,47.9447],[6.5634,47.9314],[6.544,47.9031],[6.4783,47.8854],[6.4363,47.9365],[6.3662,47.9619],[6.3245,47.9493],[6.2773,47.9538],[6.238,47.9328],[6.182,47.9563],[6.1314,48.0241],[6.1092,48.0125],[6.0728,48.0158],[6.0412,48.0044],[6.0023,47.9561],[5.9708,47.9572],[5.9395,47.9795],[5.9225,47.972],[5.8834,47.9215],[5.8513,47.906],[5.8207,47.8691],[5.816,47.8489],[5.7748,47.858],[5.7442,47.8489],[5.7363,47.8177],[5.6953,47.8226],[5.6815,47.8091],[5.68,47.77],[5.7051,47.7691],[5.7096,47.7453],[5.6841,47.712],[5.6911,47.6846],[5.648,47.6753],[5.5926,47.6774],[5.5633,47.7027],[5.5298,47.6728],[5.4828,47.6846],[5.4703,47.675],[5.4063,47.6734],[5.4002,47.6485],[5.3726,47.6184],[5.3455,47.6047],[5.3064,47.6073],[5.2566,47.5767],[5.238,47.5965],[5.2374,47.621],[5.2114,47.6419],[5.1736,47.6526],[5.1606,47.6746],[5.1292,47.6482],[5.0861,47.6566],[5.0134,47.7057],[4.9746,47.6871],[4.9541,47.7015],[4.97,47.7355],[4.959,47.7619],[4.9258,47.7602],[4.918,47.7771],[4.9823,47.8001],[4.9932,47.8156],[4.9684,47.8319],[4.9541,47.8668],[4.9286,47.8862],[4.9029,47.921],[4.8763,47.9202],[4.8568,47.8956],[4.8289,47.9151],[4.8661,47.9405],[4.8452,47.9613],[4.7865,47.9642],[4.7891,48.0078],[4.7199,48.0089],[4.7004,48.0237],[4.6732,48.0151],[4.6168,48.0314],[4.5786,48.0291],[4.5494,48.0045],[4.5542,47.9675],[4.4933,47.9682],[4.4394,47.9582],[4.4179,47.9685],[4.3432,47.9559],[4.3128,47.9625],[4.2934,47.9257],[4.2455,47.9298],[4.1663,47.9598],[4.1096,47.926],[4.093,47.943],[4.0589,47.9317],[3.9265,47.9346],[3.9022,47.9952],[3.8243,48.0429],[3.8264,48.0636],[3.7799,48.1206],[3.741,48.1314],[3.7548,48.1502],[3.7403,48.1697],[3.705,48.1443],[3.6679,48.1392],[3.6415,48.1839],[3.5999,48.2023],[3.6216,48.2257],[3.6168,48.2713],[3.5841,48.2812],[3.588,48.3008],[3.5439,48.3198],[3.5342,48.3388],[3.4976,48.3696],[3.4508,48.3739],[3.4148,48.3903],[3.3672,48.3943],[3.3652,48.3723],[3.268,48.378],[3.2003,48.3637],[3.1399,48.3726],[3.0989,48.3578],[3.0462,48.358],[3.0436,48.3304],[3.0159,48.3079],[3.0447,48.2716],[3.0069,48.2146],[2.9731,48.2056],[2.9346,48.1759],[2.9363,48.1634],[3.0122,48.1445],[3.0294,48.1333],[3.0505,48.0723],[3.08,48.0603],[3.0998,48.0192],[3.1242,48.0069],[3.1285,47.971],[3.0505,47.9106],[3.0096,47.9054],[3.0069,47.8838],[3.0318,47.8504],[3.0146,47.8327],[3.0235,47.7863],[2.9882,47.786],[2.9308,47.7623],[2.8702,47.7649],[2.8487,47.7258],[2.8606,47.7099],[2.9139,47.691],[2.9181,47.6698],[2.9542,47.6457],[2.9363,47.6367],[2.9363,47.5993],[2.9644,47.5816],[2.9587,47.5574],[2.9143,47.566],[2.8901,47.5526],[2.8602,47.554],[2.8489,47.5375],[2.8885,47.5094],[2.8998,47.4801],[2.932,47.4395],[2.9195,47.4073],[2.8695,47.3399],[2.8766,47.3219],[2.9078,47.311],[2.9831,47.2608],[2.978,47.2356],[3.0206,47.1532],[3.0314,47.0925],[3.0232,47.0626],[3.0628,47.0453],[3.0752,47.0293],[3.0626,46.9792],[3.0793,46.9551],[3.0503,46.9106],[3.067,46.8818],[3.0589,46.8263],[3.0321,46.7949]]]},"properties":{"code":"27","nom":"Bourgogne-Franche-Comté"}},
{"type":"Feature","geometry":{"type":"Polygon","coordinates":[[[1.3816,50.0658],[1.3324,50.0471],[1.2059,49.9735],[1.1073,49.9371],[1.02,49.9161],[0.9632,49.9199],[0.9323,49.9076],[0.8326,49.8896],[0.791,49.8757],[0.71,49.873],[0.5729,49.8497],[0.5228,49.8245],[0.4242,49.7843],[0.3701,49.7691],[0.3243,49.7424],[0.2857,49.738],[0.206,49.7142],[0.1642,49.6865],[0.1545,49.6486],[0.0688,49.5249],[0.0907,49.4821],[0.1213,49.4632],[0.1925,49.4515],[0.2583,49.4461],[0.2731,49.4534],[0.3393,49.4499],[0.3406,49.4343],[0.2236,49.4281],[0.1117,49.3953],[0.0755,49.3662],[-0.0005,49.3256],[-0.1319,49.2908],[-0.2257,49.2818],[-0.3026,49.2984],[-0.3618,49.3233],[-0.4148,49.3356],[-0.4563,49.3359],[-0.5532,49.3461],[-0.5987,49.3398],[-0.7236,49.3468],[-0.8432,49.3606],[-0.9244,49.3925],[-1.0035,49.3964],[-1.0698,49.3905],[-1.1179,49.3605],[-1.1388,49.3584],[-1.1793,49.3775],[-1.1617,49.3918],[-1.1825,49.424],[-1.2527,49.4806],[-1.3097,49.5489],[-1.3043,49.5734],[-1.2664,49.5925],[-1.228,49.623],[-1.2767,49.6954],[-1.2998,49.6935],[-1.371,49.7073],[-1.436,49.7001],[-1.4869,49.6685],[-1.5219,49.6567],[-1.5685,49.6569],[-1.6235,49.6445],[-1.6294,49.6597],[-1.6724,49.6576],[-1.7216,49.6801],[-1.7606,49.6783],[-1.8271,49.6928],[-1.8587,49.7166],[-1.8886,49.7063],[-1.9062,49.7221],[-1.9422,49.7261],[-1.9469,49.6745],[-1.8603,49.6502],[-1.8424,49.6037],[-1.8413,49.5745],[-1.8866,49.5264],[-1.8509,49.5088],[-1.8446,49.471],[-1.8268,49.4529],[-1.8237,49.4015],[-1.809,49.3755],[-1.7842,49.3777],[-1.7112,49.3251],[-1.6651,49.2659],[-1.64,49.2207],[-1.5864,49.2339],[-1.6073,49.1967],[-1.5926,49.136],[-1.6088,49.1056],[-1.6092,49.0769],[-1.5938,49.0225],[-1.5607,49.0015],[-1.5643,48.9216],[-1.5764,48.8662],[-1.6018,48.8365],[-1.5686,48.8059],[-1.5747,48.7534],[-1.5602,48.7355],[-1.5293,48.7301],[-1.5082,48.6912],[-1.4324,48.6664],[-1.4012,48.674],[-1.3883,48.644],[-1.4255,48.6379],[-1.4786,48.6182],[-1.5156,48.6183],[-1.5435,48.6312],[-1.5711,48.6265],[-1.5372,48.5988],[-1.5189,48.5666],[-1.5345,48.5503],[-1.4952,48.5069],[-1.49,48.4894],[-1.4539,48.4878],[-1.4279,48.4619],[-1.3799,48.4561],[-1.3447,48.4731],[-1.3275,48.4981],[-1.2781,48.5101],[-1.2723,48.5339],[-1.2387,48.5378],[-1.1699,48.5311],[-1.0702,48.5085],[-1.0604,48.5149],[-1.004,48.4892],[-0.9763,48.4933],[-0.9471,48.5144],[-0.896,48.4949],[-0.8458,48.4973],[-0.8208,48.4757],[-0.7779,48.4654],[-0.7602,48.4362],[-0.7021,48.4672],[-0.6557,48.4741],[-0.6558,48.4479],[-0.5986,48.471],[-0.5503,48.4742],[-0.5097,48.509],[-0.4342,48.5138],[-0.3554,48.4927],[-0.3202,48.5229],[-0.2709,48.519],[-0.2122,48.5631],[-0.1446,48.5278],[-0.1712,48.5091],[-0.156,48.4958],[-0.1436,48.4547],[-0.1059,48.4473],[-0.0513,48.4529],[-0.058,48.3875],[-0.0024,48.3974],[0.021,48.3802],[0.066,48.4053],[0.1001,48.4101],[0.1172,48.436],[0.1448,48.4527],[0.2133,48.4736],[0.3007,48.4805],[0.3543,48.459],[0.3785,48.4269],[0.3717,48.4105],[0.3826,48.3338],[0.4062,48.3146],[0.4663,48.3059],[0.5131,48.2669],[0.5614,48.2456],[0.6236,48.2453],[0.6523,48.264],[0.6829,48.2549],[0.7378,48.1891],[0.7577,48.1799],[0.7977,48.1945],[0.8302,48.2143],[0.7859,48.2711],[0.7964,48.2871],[0.7689,48.3132],[0.7854,48.3404],[0.8285,48.3425],[0.8837,48.3567],[0.9441,48.3996],[0.9584,48.4426],[0.939,48.4608],[0.9666,48.5228],[0.9229,48.5384],[0.9388,48.5506],[0.8496,48.5843],[0.8471,48.6095],[0.8196,48.6099],[0.8252,48.6486],[0.8094,48.6648],[0.8688,48.6988],[0.8726,48.7132],[0.9212,48.7092],[0.9615,48.7257],[1.0167,48.7284],[1.0697,48.7488],[1.1187,48.7546],[1.1185,48.7861],[1.1512,48.7858],[1.163,48.7693],[1.2969,48.7682],[1.3212,48.7607],[1.3774,48.7893],[1.3564,48.816],[1.3663,48.835],[1.4065,48.8611],[1.4606,48.8723],[1.4713,48.8978],[1.4526,48.9187],[1.4613,48.9376],[1.5015,48.941],[1.4984,48.9792],[1.4465,49.0463],[1.51,49.0671],[1.6233,49.0861],[1.6296,49.11],[1.6577,49.1319],[1.6749,49.2115],[1.7044,49.2322],[1.7092,49.2645],[1.7386,49.269],[1.7898,49.2538],[1.8027,49.2719],[1.7675,49.3205],[1.7742,49.3372],[1.761,49.3662],[1.7139,49.4066],[1.7234,49.4346],[1.7759,49.4713],[1.7891,49.5054],[1.7526,49.4973],[1.7156,49.5056],[1.7483,49.5385],[1.7011,49.5988],[1.7214,49.6247],[1.7088,49.6464],[1.7231,49.6725],[1.7522,49.681],[1.7155,49.7086],[1.7392,49.749],[1.7848,49.7585],[1.7374,49.8082],[1.7117,49.8737],[1.6782,49.9183],[1.5948,49.9486],[1.5749,49.9732],[1.5275,49.9951],[1.5181,50.0105],[1.4548,50.0378],[1.4491,50.0689],[1.4093,50.0571],[1.3816,50.0658]]]},"properties":{"code":"28","nom":"Normandie"}},
{"type":"Feature","geometry":{"type":"Polygon","coordinates":[[[4.2332,49.9578],[4.1728,49.9772],[4.1358,50.0194],[4.2311,50.0713],[4.2068,50.0957],[4.197,50.1353],[4.1269,50.135],[4.151,50.1586],[4.1601,50.2025],[4.1939,50.2403],[4.2207,50.2522],[4.208,50.273],[4.1227,50.2978],[4.0426,50.3398],[4.0237,50.3589],[3.9679,50.3504],[3.911,50.329],[3.8528,50.3516],[3.7757,50.3532],[3.7392,50.3477],[3.7317,50.318],[3.7104,50.3032],[3.6737,50.3349],[3.658,50.3735],[3.6737,50.3903],[3.6692,50.4387],[3.6071,50.4973],[3.5223,50.495],[3.5183,50.5246],[3.4744,50.5336],[3.4468,50.506],[3.3917,50.4984],[3.3271,50.5095],[3.2865,50.5276],[3.276,50.5585],[3.2739,50.6045],[3.2442,50.6405],[3.2413,50.6687],[3.2649,50.6761],[3.2457,50.7132],[3.2185,50.7122],[3.1473,50.7902],[3.0887,50.7734],[3.0614,50.7805],[3.0121,50.7691],[2.9734,50.7503],[2.9387,50.7449],[2.9299,50.7104],[2.9109,50.6945],[2.8702,50.7029],[2.8484,50.7229],[2.8195,50.7154],[2.7896,50.7263],[2.7622,50.7708],[2.7258,50.7925],[2.7175,50.8136],[2.635,50.8128],[2.612,50.8634],[2.6075,50.9124],[2.6299,50.9432],[2.6209,50.9647],[2.576,51.0138],[2.5629,51.0646],[2.5463,51.0884],[2.4248,51.0556],[2.3811,51.0486],[2.3553,51.0591],[2.259,51.0435],[2.1785,51.0234],[2.1446,51.021],[2.1081,51.0042],[1.9158,50.9841],[1.8346,50.9634],[1.7807,50.9549],[1.7123,50.9294],[1.6605,50.8876],[1.6358,50.877],[1.5819,50.871],[1.5779,50.853],[1.606,50.7919],[1.5941,50.7334],[1.5704,50.7246],[1.5607,50.6997],[1.5762,50.641],[1.5766,50.5722],[1.6192,50.535],[1.583,50.5346],[1.57,50.4445],[1.5557,50.3977],[1.613,50.3603],[1.5509,50.3503],[1.538,50.2827],[1.5493,50.2604],[1.5922,50.2565],[1.6233,50.2141],[1.6627,50.2136],[1.6838,50.183],[1.6274,50.19],[1.5962,50.1855],[1.5484,50.2152],[1.5124,50.2017],[1.4787,50.1649],[1.4546,50.1114],[1.3816,50.0658],[1.4093,50.0571],[1.4491,50.0689],[1.4548,50.0378],[1.5181,50.0105],[1.5275,49.9951],[1.5749,49.9732],[1.5948,49.9486],[1.6782,49.9183],[1.7117,49.8737],[1.7374,49.8082],[1.7848,49.7585],[1.7392,49.749],[1.7155,49.7086],[1.7522,49.681],[1.7231,49.6725],[1.7088,49.6464],[1.7214,49.6247],[1.7011,49.5988],[1.7483,49.5385],[1.7156,49.5056],[1.7526,49.4973],[1.7891,49.5054],[1.7759,49.4713],[1.7234,49.4346],[1.7139,49.4066],[1.761,49.3662],[1.7742,49.3372],[1.7675,49.3205],[1.8027,49.2719],[1.7898,49.2538],[1.7386,49.269],[1.7092,49.2645],[1.7044,49.2322],[1.7297,49.2292],[1.7399,49.1921],[1.7555,49.1746],[1.7955,49.1853],[1.8826,49.1625],[1.9734,49.1839],[2.0018,49.1759],[2.072,49.2041],[2.1133,49.1865],[2.165,49.1785],[2.2198,49.1798],[2.2538,49.1526],[2.3133,49.1858],[2.3463,49.1618],[2.4131,49.1524],[2.4716,49.1354],[2.5311,49.0996],[2.5979,49.0818],[2.6306,49.1025],[2.6732,49.0909],[2.7052,49.065],[2.7536,49.0607],[2.784,49.0886],[2.8093,49.0975],[2.8703,49.0702],[2.9015,49.0854],[2.9406,49.0771],[2.9714,49.089],[3.0295,49.0859],[3.0677,49.1144],[3.1652,49.0996],[3.1536,49.0833],[3.1892,49.046],[3.161,49.0242],[3.1965,49.0088],[3.2312,48.9768],[3.2518,48.9724],[3.2649,48.9392],[3.3048,48.9488],[3.3303,48.9087],[3.3659,48.9231],[3.369,48.8937],[3.4456,48.8603],[3.4852,48.8519],[3.5286,48.9121],[3.5739,48.9215],[3.5744,48.939],[3.6212,48.966],[3.6399,49.0041],[3.675,49.0117],[3.6635,49.0373],[3.5876,49.0338],[3.5877,49.0594],[3.6391,49.0813],[3.6118,49.1181],[3.6223,49.1511],[3.6924,49.1533],[3.7061,49.1453],[3.7488,49.1571],[3.7044,49.1814],[3.6986,49.2055],[3.6528,49.2154],[3.6782,49.2353],[3.6554,49.2634],[3.6573,49.291],[3.6439,49.3127],[3.6692,49.3248],[3.7422,49.3365],[3.8022,49.3589],[3.8528,49.345],[3.8696,49.4067],[3.9103,49.3948],[3.9315,49.4008],[3.9613,49.3773],[3.9949,49.3779],[4.0355,49.3599],[4.0423,49.4166],[4.0377,49.4383],[4.0407,49.5085],[4.0774,49.5245],[4.0594,49.5929],[4.0253,49.6225],[4.069,49.6375],[4.0992,49.6284],[4.1255,49.6511],[4.127,49.6779],[4.1787,49.6982],[4.2242,49.7276],[4.2469,49.7548],[4.2143,49.8061],[4.233,49.8484],[4.2488,49.8568],[4.2557,49.9032],[4.217,49.9144],[4.2332,49.9578]]]},"properties":{"code":"32","nom":"Hauts-de-France"}},
{"type":"Feature","geometry":{"type":"Polygon","coordinates":[[[4.2332,49.9578],[4.217,49.9144],[4.2557,49.9032],[4.2488,49.8568],[4.233,49.8484],[4.2143,49.8061],[4.2469,49.7548],[4.2242,49.7276],[4.1787,49.6982],[4.127,49.6779],[4.1255,49.6511],[4.0992,49.6284],[4.069,49.6375],[4.0253,49.6225],[4.0594,49.5929],[4.0774,49.5245],[4.0407,49.5085],[4.0377,49.4383],[4.0423,49.4166],[4.0355,49.3599],[3.9949,49.3779],[3.9613,49.3773],[3.9315,49.4008],[3.9103,49.3948],[3.8696,49.4067],[3.8528,49.345],[3.8022,49.3589],[3.7422,49.3365],[3.6692,49.3248],[3.6439,49.3127],[3.6573,49.291],[3.6554,49.2634],[3.6782,49.2353],[3.6528,49.2154],[3.6986,49.2055],[3.7044,49.1814],[3.7488,49.1571],[3.7061,49.1453],[3.6924,49.1533],[3.6223,49.1511],[3.6118,49.1181],[3.6391,49.0813],[3.5877,49.0594],[3.5876,49.0338],[3.6635,49.0373],[3.675,49.0117],[3.6399,49.0041],[3.6212,48.966],[3.5744,48.939],[3.5739,48.9215],[3.5286,48.9121],[3.4852,48.8519],[3.485,48.825],[3.4414,48.8116],[3.4339,48.7808],[3.4089,48.7839],[3.3958,48.7593],[3.4366,48.7532],[3.4697,48.7379],[3.4735,48.6887],[3.4427,48.6725],[3.4726,48.6366],[3.5175,48.6434],[3.5585,48.6184],[3.5032,48.6046],[3.4655,48.5705],[3.4858,48.5452],[3.457,48.5296],[3.4142,48.5335],[3.4346,48.4903],[3.3885,48.4772],[3.4065,48.4525],[3.3975,48.4245],[3.4222,48.4129],[3.4148,48.3903],[3.4508,48.3739],[3.4976,48.3696],[3.5342,48.3388],[3.5439,48.3198],[3.588,48.3008],[3.5841,48.2812],[3.6168,48.2713],[3.6216,48.2257],[3.5999,48.2023],[3.6415,48.1839],[3.6679,48.1392],[3.705,48.1443],[3.7403,48.1697],[3.7548,48.1502],[3.741,48.1314],[3.7799,48.1206],[3.8264,48.0636],[3.8243,48.0429],[3.9022,47.9952],[3.9265,47.9346],[4.0589,47.9317],[4.093,47.943],[4.1096,47.926],[4.1663,47.9598],[4.2455,47.9298],[4.2934,47.9257],[4.3128,47.9625],[4.3432,47.9559],[4.4179,47.9685],[4.4394,47.9582],[4.4933,47.9682],[4.5542,47.9675],[4.5494,48.0045],[4.5786,48.0291],[4.6168,48.0314],[4.6732,48.0151],[4.7004,48.0237],[4.7199,48.0089],[4.7891,48.0078],[4.7865,47.9642],[4.8452,47.9613],[4.8661,47.9405],[4.8289,47.9151],[4.8568,47.8956],[4.8763,47.9202],[4.9029,47.921],[4.9286,47.8862],[4.9541,47.8668],[4.9684,47.8319],[4.9932,47.8156],[4.9823,47.8001],[4.918,47.7771],[4.9258,47.7602],[4.959,47.7619],[4.97,47.7355],[4.9541,47.7015],[4.9746,47.6871],[5.0134,47.7057],[5.0861,47.6566],[5.1292,47.6482],[5.1606,47.6746],[5.1736,47.6526],[5.2114,47.6419],[5.2374,47.621],[5.238,47.5965],[5.2566,47.5767],[5.3064,47.6073],[5.3455,47.6047],[5.3726,47.6184],[5.4002,47.6485],[5.4063,47.6734],[5.4703,47.675],[5.4828,47.6846],[5.5298,47.6728],[5.5633,47.7027],[5.5926,47.6774],[5.648,47.6753],[5.6911,47.6846],[5.6841,47.712],[5.7096,47.7453],[5.7051,47.7691],[5.68,47.77],[5.6815,47.8091],[5.6953,47.8226],[5.7363,47.8177],[5.7442,47.8489],[5.7748,47.858],[5.816,47.8489],[5.8207,47.8691],[5.8513,47.906],[5.8834,47.9215],[5.9225,47.972],[5.9395,47.9795],[5.9708,47.9572],[6.0023,47.9561],[6.0412,48.0044],[6.0728,48.0158],[6.1092,48.0125],[6.1314,48.0241],[6.182,47.9563],[6.238,47.9328],[6.2773,47.9538],[6.3245,47.9493],[6.3662,47.9619],[6.4363,47.9365],[6.4783,47.8854],[6.544,47.9031],[6.5634,47.9314],[6.6029,47.9447],[6.6419,47.9178],[6.6496,47.9018],[6.7378,47.8617],[6.7826,47.8513],[6.7927,47.8295],[6.8503,47.8071],[6.8635,47.7852],[6.9404,47.7716],[6.9723,47.7515],[7.0131,47.7413],[7.0341,47.7251],[7.0265,47.701],[7.0401,47.6857],[7.0176,47.6499],[7.0059,47.6024],[7.0704,47.6007],[7.1055,47.5689],[7.1101,47.549],[7.1359,47.5371],[7.1304,47.503],[7.1914,47.4888],[7.1705,47.4439],[7.2237,47.4396],[7.2544,47.4241],[7.3029,47.4387],[7.339,47.4409],[7.3856,47.4316],[7.4142,47.4421],[7.4556,47.473],[7.511,47.4967],[7.5277,47.5216],[7.5061,47.5443],[7.5849,47.5756],[7.5922,47.5954],[7.5665,47.6329],[7.5224,47.6623],[7.5138,47.7028],[7.5435,47.722],[7.5481,47.7396],[7.5313,47.7868],[7.5636,47.8521],[7.5567,47.8799],[7.5835,47.9016],[7.5805,47.924],[7.6221,47.9723],[7.6054,48.0038],[7.5687,48.0341],[7.5773,48.1204],[7.5995,48.1555],[7.6435,48.2065],[7.6678,48.2239],[7.7032,48.3088],[7.7332,48.3178],[7.745,48.3357],[7.7324,48.3738],[7.736,48.4042],[7.7606,48.4466],[7.7667,48.485],[7.807,48.5211],[7.8042,48.5923],[7.8398,48.6414],[7.8909,48.6631],[7.9631,48.7214],[7.9697,48.7554],[8.0049,48.7588],[8.0291,48.7865],[8.0589,48.7888],[8.1061,48.8237],[8.1271,48.8749],[8.1958,48.9562],[8.2249,48.9754],[8.1395,48.9783],[8.0707,48.9959],[8.0492,49.0142],[7.9945,49.0289],[7.9371,49.0574],[7.9232,49.0443],[7.8882,49.0486],[7.8663,49.0334],[7.7946,49.0658],[7.7666,49.0465],[7.6952,49.0575],[7.6745,49.045],[7.6316,49.0552],[7.6294,49.0737],[7.569,49.0798],[7.529,49.0972],[7.4903,49.142],[7.494,49.1696],[7.4578,49.163],[7.4359,49.1828],[7.3651,49.1718],[7.3633,49.1453],[7.3298,49.1449],[7.2937,49.1151],[7.2453,49.1298],[7.1588,49.1208],[7.1263,49.1419],[7.1028,49.1405],[7.0498,49.1145],[7.0469,49.1359],[7.0107,49.1881],[6.975,49.2098],[6.9597,49.203],[6.9199,49.2231],[6.8924,49.2088],[6.8575,49.2223],[6.8587,49.1749],[6.8345,49.1515],[6.7798,49.1685],[6.7385,49.1637],[6.7114,49.1885],[6.6687,49.2804],[6.5889,49.3221],[6.5649,49.349],[6.5917,49.3581],[6.5877,49.383],[6.5405,49.4012],[6.557,49.4191],[6.4647,49.4665],[6.4281,49.4769],[6.3933,49.4643],[6.3425,49.4692],[6.289,49.4847],[6.2791,49.5034],[6.2384,49.512],[6.1745,49.5098],[6.1264,49.49],[6.1235,49.4734],[6.0526,49.4641],[6.0422,49.4478],[5.9742,49.4648],[5.9724,49.4911],[5.9399,49.501],[5.8691,49.4988],[5.8366,49.5196],[5.837,49.5425],[5.792,49.5517],[5.7002,49.54],[5.6605,49.5536],[5.5935,49.5219],[5.5561,49.5293],[5.5412,49.5153],[5.4786,49.4998],[5.4491,49.5159],[5.4486,49.5483],[5.4269,49.5974],[5.3515,49.6308],[5.3377,49.6159],[5.3049,49.6246],[5.3328,49.6528],[5.2707,49.6953],[5.2182,49.6875],[5.1662,49.6929],[5.1653,49.712],[5.1231,49.7173],[5.1185,49.7383],[5.0935,49.7637],[5.0717,49.7611],[5.0089,49.7819],[4.9988,49.7996],[4.9571,49.8017],[4.9057,49.7855],[4.8596,49.7974],[4.8673,49.842],[4.8516,49.8537],[4.89,49.9093],[4.8502,49.9465],[4.7909,49.9584],[4.8189,49.9951],[4.8194,50.0258],[4.8415,50.0436],[4.8379,50.0671],[4.8509,50.1013],[4.8971,50.1378],[4.876,50.1539],[4.8243,50.1607],[4.7627,50.1345],[4.7514,50.1117],[4.7021,50.0955],[4.6885,50.0726],[4.6966,50.0427],[4.6878,50.0008],[4.6332,49.9871],[4.5821,49.9836],[4.5422,49.9693],[4.5104,49.9467],[4.4469,49.9375],[4.4198,49.9458],[4.3501,49.952],[4.3087,49.9697],[4.2332,49.9578]]]},"properties":{"code":"44","nom":"Grand Est"}},
{"type":"Feature","geometry":{"type":"MultiPolygon","coordinates":[[[[-2.4585,47.4481],[-2.4683,47.4176],[-2.5372,47.3822],[-2.5084,47.3444],[-2.505,47.3137],[-2.5464,47.2907],[-2.4611,47.27],[-2.4406,47.2598],[-2.3984,47.2815],[-2.3585,47.2733],[-2.2976,47.2343],[-2.1874,47.2806],[-2.17,47.2685],[-2.1596,47.2112],[-2.1671,47.1662],[-2.1802,47.1559],[-2.2261,47.1523],[-2.221,47.1259],[-2.1574,47.113],[-2.1111,47.1099],[-2.0521,47.0938],[-2.0047,47.0615],[-1.9804,47.0274],[-2.0293,47.0099],[-2.0582,46.9509],[-2.1178,46.9083],[-2.1218,46.8911],[-2.155,46.8897],[-2.1421,46.8191],[-2.0621,46.7773],[-1.9797,46.7174],[-1.9658,46.6919],[-1.9429,46.6927],[-1.8907,46.6347],[-1.857,46.6099],[-1.8123,46.4934],[-1.7699,46.4892],[-1.7553,46.4745],[-1.6678,46.4379],[-1.6535,46.4219],[-1.5505,46.4054],[-1.5151,46.4043],[-1.4878,46.3814],[-1.4659,46.3424],[-1.401,46.3405],[-1.3581,46.3476],[-1.2818,46.31],[-1.221,46.2732],[-1.1627,46.3237],[-1.1294,46.3103],[-1.0783,46.3169],[-1.0525,46.3425],[-1.0138,46.3556],[-0.9749,46.3511],[-0.9435,46.3366],[-0.919,46.3126],[-0.8073,46.3393],[-0.7472,46.3028],[-0.6967,46.3251],[-0.6484,46.3169],[-0.6366,46.3376],[-0.6032,46.3615],[-0.5618,46.3597],[-0.5378,46.3865],[-0.6102,46.4137],[-0.6368,46.4323],[-0.6077,46.4549],[-0.6422,46.5248],[-0.6021,46.5333],[-0.6151,46.623],[-0.6491,46.6453],[-0.6375,46.6623],[-0.6807,46.6869],[-0.6562,46.7008],[-0.694,46.7439],[-0.727,46.7664],[-0.7067,46.8188],[-0.7667,46.8345],[-0.8163,46.8806],[-0.8282,46.9272],[-0.8477,46.9442],[-0.881,46.9465],[-0.8804,46.97],[-0.7876,47.0051],[-0.7619,46.9921],[-0.633,46.9975],[-0.6188,46.9924],[-0.5655,47.0194],[-0.5597,47.0617],[-0.4944,47.0831],[-0.4093,47.0663],[-0.3861,47.0874],[-0.3415,47.0873],[-0.2827,47.1033],[-0.2458,47.1055],[-0.2023,47.0961],[-0.1795,47.108],[-0.1521,47.1009],[-0.179,47.0702],[-0.1021,47.0648],[-0.0859,47.101],[-0.0442,47.0932],[-0.036,47.1251],[-0.0122,47.156],[0.019,47.1758],[0.0538,47.1637],[0.0666,47.1898],[0.0679,47.2473],[0.0858,47.2899],[0.1175,47.3323],[0.138,47.3362],[0.1853,47.4247],[0.1809,47.4534],[0.2201,47.502],[0.1995,47.5412],[0.2151,47.57],[0.2344,47.5801],[0.2324,47.6058],[0.3221,47.5952],[0.3785,47.5685],[0.3944,47.5944],[0.3642,47.6253],[0.3963,47.6409],[0.4239,47.6178],[0.4566,47.6388],[0.5438,47.6563],[0.5969,47.6728],[0.593,47.7036],[0.6212,47.7483],[0.6513,47.7552],[0.701,47.7901],[0.7264,47.7992],[0.7749,47.8438],[0.7612,47.8998],[0.813,47.9136],[0.8187,47.935],[0.8487,47.9426],[0.819,47.986],[0.8419,48.0302],[0.8072,48.0325],[0.7941,48.0486],[0.8028,48.0716],[0.843,48.0726],[0.852,48.1316],[0.9103,48.136],[0.9116,48.1489],[0.8599,48.1676],[0.8395,48.1657],[0.7977,48.1945],[0.7577,48.1799],[0.7378,48.1891],[0.6829,48.2549],[0.6523,48.264],[0.6236,48.2453],[0.5614,48.2456],[0.5131,48.2669],[0.4663,48.3059],[0.4062,48.3146],[0.3826,48.3338],[0.3717,48.4105],[0.3785,48.4269],[0.3543,48.459],[0.3007,48.4805],[0.2133,48.4736],[0.1448,48.4527],[0.1172,48.436],[0.1001,48.4101],[0.066,48.4053],[0.021,48.3802],[-0.0024,48.3974],[-0.058,48.3875],[-0.0513,48.4529],[-0.1059,48.4473],[-0.1436,48.4547],[-0.156,48.4958],[-0.1712,48.5091],[-0.1446,48.5278],[-0.2122,48.5631],[-0.2709,48.519],[-0.3202,48.5229],[-0.3554,48.4927],[-0.4342,48.5138],[-0.5097,48.509],[-0.5503,48.4742],[-0.5986,48.471],[-0.6558,48.4479],[-0.6557,48.4741],[-0.7021,48.4672],[-0.7602,48.4362],[-0.7779,48.4654],[-0.8208,48.4757],[-0.8458,48.4973],[-0.896,48.4949],[-0.9471,48.5144],[-0.9763,48.4933],[-1.004,48.4892],[-1.0604,48.5149],[-1.0702,48.5085],[-1.078,48.4885],[-1.064,48.467],[-1.0836,48.4337],[-1.053,48.381],[-1.06,48.3492],[-1.045,48.3282],[-1.0906,48.2892],[-1.1013,48.2662],[-1.0749,48.2017],[-1.0804,48.1754],[-1.0603,48.1501],[-1.0498,48.0904],[-1.0216,48.068],[-1.035,48.0336],[-1.0227,47.9942],[-1.0718,47.9818],[-1.108,47.9894],[-1.1565,47.9643],[-1.189,47.867],[-1.214,47.8445],[-1.2459,47.7767],[-1.3651,47.7991],[-1.3891,47.8279],[-1.4606,47.8354],[-1.4824,47.8309],[-1.4731,47.802],[-1.529,47.7848],[-1.5846,47.779],[-1.6198,47.7643],[-1.64,47.7258],[-1.6694,47.7125],[-1.7514,47.7075],[-1.7716,47.6983],[-1.864,47.707],[-1.9402,47.6851],[-1.9689,47.6896],[-2.0094,47.6714],[-2.0391,47.6695],[-2.097,47.6314],[-2.085,47.6212],[-2.1031,47.5945],[-2.0985,47.534],[-2.156,47.522],[-2.1542,47.4964],[-2.1893,47.494],[-2.2156,47.5084],[-2.2443,47.4936],[-2.2958,47.5145],[-2.3131,47.4859],[-2.3119,47.4652],[-2.3549,47.4549],[-2.3999,47.456],[-2.4186,47.4726],[-2.4585,47.4481]]],[[[-2.3048,46.7094],[-2.3183,46.7199],[-2.3742,46.7337],[-2.3987,46.7164],[-2.3639,46.6947],[-2.3276,46.6869],[-2.3048,46.7094]]],[[[-2.1981,46.9512],[-2.2374,46.9816],[-2.2183,47.0078],[-2.2507,47.0273],[-2.2771,47.029],[-2.3011,46.989],[-2.2644,46.9609],[-2.2232,46.9653],[-2.1981,46.9512]]]]},"properties":{"code":"52","nom":"Pays de la Loire"}},
{"type":"Feature","geometry":{"type":"MultiPolygon","coordinates":[[[[-1.5711,48.6265],[-1.6642,48.6101],[-1.774,48.6035],[-1.8425,48.6148],[-1.872,48.6471],[-1.8371,48.6792],[-1.8501,48.6994],[-1.9484,48.6827],[-1.986,48.6812],[-1.9952,48.6601],[-2.0249,48.6374],[-1.9737,48.5603],[-2.0085,48.5724],[-2.0084,48.5886],[-2.0622,48.6404],[-2.1331,48.6356],[-2.1365,48.6128],[-2.1641,48.6073],[-2.1608,48.5867],[-2.2141,48.5929],[-2.2592,48.6454],[-2.3121,48.6338],[-2.2858,48.6677],[-2.3322,48.6706],[-2.3963,48.6428],[-2.4377,48.6528],[-2.4676,48.65],[-2.4734,48.6225],[-2.4934,48.6097],[-2.5479,48.5976],[-2.6411,48.5235],[-2.7211,48.5313],[-2.7248,48.5469],[-2.7751,48.572],[-2.779,48.5847],[-2.8239,48.5972],[-2.8282,48.6561],[-2.8808,48.6742],[-2.8833,48.6903],[-2.9451,48.7208],[-2.9318,48.7532],[-2.9504,48.7633],[-3.0168,48.7685],[-3.0309,48.7839],[-3.0136,48.8221],[-3.0663,48.8222],[-3.0884,48.8575],[-3.1116,48.8673],[-3.2027,48.8349],[-3.2197,48.8665],[-3.2577,48.8402],[-3.3892,48.8157],[-3.3975,48.8008],[-3.491,48.8281],[-3.5413,48.8227],[-3.5352,48.802],[-3.566,48.7967],[-3.5848,48.7698],[-3.5496,48.7467],[-3.5537,48.7292],[-3.5843,48.7185],[-3.5674,48.6827],[-3.6134,48.6721],[-3.7013,48.6899],[-3.7338,48.7088],[-3.783,48.7012],[-3.8132,48.7132],[-3.8544,48.6893],[-3.846,48.6268],[-3.8926,48.6428],[-3.9228,48.671],[-3.9505,48.6529],[-3.9652,48.6917],[-3.9651,48.7218],[-3.993,48.7229],[-4.0568,48.7006],[-4.0588,48.6869],[-4.1139,48.6949],[-4.1805,48.6839],[-4.2384,48.6506],[-4.2745,48.6495],[-4.2964,48.6645],[-4.35,48.6765],[-4.398,48.6556],[-4.4333,48.6515],[-4.4756,48.6239],[-4.511,48.6325],[-4.5587,48.6233],[-4.6123,48.5729],[-4.6843,48.5719],[-4.7083,48.5554],[-4.7464,48.5465],[-4.7779,48.5047],[-4.7646,48.4669],[-4.7954,48.4147],[-4.7756,48.4068],[-4.7604,48.3747],[-4.7809,48.3543],[-4.7737,48.3303],[-4.7227,48.3299],[-4.6806,48.3556],[-4.6281,48.3375],[-4.538,48.3571],[-4.5011,48.3778],[-4.3961,48.3865],[-4.4418,48.3536],[-4.4047,48.3236],[-4.3753,48.3263],[-4.3632,48.3466],[-4.3022,48.3438],[-4.3111,48.3171],[-4.2411,48.3056],[-4.2619,48.2795],[-4.3071,48.2975],[-4.3672,48.2777],[-4.4099,48.276],[-4.4589,48.2926],[-4.5006,48.2819],[-4.5527,48.2943],[-4.5453,48.3245],[-4.5794,48.3202],[-4.566,48.2873],[-4.601,48.2833],[-4.618,48.2665],[-4.5836,48.2525],[-4.564,48.2322],[-4.5496,48.1943],[-4.527,48.1858],[-4.5016,48.2304],[-4.4484,48.2356],[-4.3571,48.2051],[-4.3028,48.1939],[-4.2749,48.1558],[-4.2705,48.135],[-4.2866,48.103],[-4.307,48.0892],[-4.3625,48.1093],[-4.413,48.107],[-4.4893,48.0862],[-4.5364,48.0889],[-4.6217,48.0685],[-4.6632,48.0697],[-4.7134,48.0602],[-4.6985,48.0265],[-4.5973,48.0149],[-4.5647,47.9998],[-4.5493,48.0121],[-4.5006,48.0022],[-4.4509,47.9811],[-4.3921,47.9315],[-4.3625,47.8869],[-4.3489,47.8316],[-4.3792,47.8221],[-4.3742,47.798],[-4.2678,47.7903],[-4.2169,47.7929],[-4.1764,47.8051],[-4.1636,47.8492],[-4.1127,47.8645],[-4.0687,47.8643],[-4.0398,47.8447],[-3.9802,47.8543],[-3.99,47.8827],[-3.9597,47.897],[-3.9027,47.8595],[-3.8938,47.8327],[-3.8398,47.7963],[-3.7598,47.7907],[-3.7349,47.8042],[-3.6873,47.7795],[-3.6263,47.77],[-3.5286,47.7654],[-3.5005,47.7309],[-3.4528,47.6953],[-3.4248,47.7046],[-3.3592,47.7071],[-3.2922,47.7031],[-3.2709,47.6789],[-3.2167,47.6467],[-3.1987,47.6995],[-3.1693,47.7153],[-3.1315,47.7039],[-3.2094,47.667],[-3.1977,47.6239],[-3.1584,47.607],[-3.1397,47.5796],[-3.1346,47.5488],[-3.1525,47.5199],[-3.1456,47.4835],[-3.1175,47.4964],[-3.1332,47.5324],[-3.1233,47.5695],[-3.0896,47.5645],[-3.0427,47.5789],[-2.9684,47.5572],[-2.9381,47.5662],[-2.965,47.5887],[-2.9424,47.5979],[-2.9056,47.5904],[-2.8741,47.5984],[-2.8482,47.6179],[-2.7782,47.6187],[-2.69,47.5896],[-2.7258,47.5661],[-2.7308,47.5423],[-2.7855,47.5473],[-2.8752,47.5344],[-2.8441,47.496],[-2.8153,47.4867],[-2.7246,47.5064],[-2.6826,47.4954],[-2.6643,47.5186],[-2.6363,47.5183],[-2.616,47.545],[-2.5562,47.5128],[-2.5209,47.527],[-2.4415,47.499],[-2.4989,47.4574],[-2.4585,47.4481],[-2.4186,47.4726],[-2.3999,47.456],[-2.3549,47.4549],[-2.3119,47.4652],[-2.3131,47.4859],[-2.2958,47.5145],[-2.2443,47.4936],[-2.2156,47.5084],[-2.1893,47.494],[-2.1542,47.4964],[-2.156,47.522],[-2.0985,47.534],[-2.1031,47.5945],[-2.085,47.6212],[-2.097,47.6314],[-2.0391,47.6695],[-2.0094,47.6714],[-1.9689,47.6896],[-1.9402,47.6851],[-1.864,47.707],[-1.7716,47.6983],[-1.7514,47.7075],[-1.6694,47.7125],[-1.64,47.7258],[-1.6198,47.7643],[-1.5846,47.779],[-1.529,47.7848],[-1.4731,47.802],[-1.4824,47.8309],[-1.4606,47.8354],[-1.3891,47.8279],[-1.3651,47.7991],[-1.2459,47.7767],[-1.214,47.8445],[-1.189,47.867],[-1.1565,47.9643],[-1.108,47.9894],[-1.0718,47.9818],[-1.0227,47.9942],[-1.035,48.0336],[-1.0216,48.068],[-1.0498,48.0904],[-1.0603,48.1501],[-1.0804,48.1754],[-1.0749,48.2017],[-1.1013,48.2662],[-1.0906,48.2892],[-1.045,48.3282],[-1.06,48.3492],[-1.053,48.381],[-1.0836,48.4337],[-1.064,48.467],[-1.078,48.4885],[-1.0702,48.5085],[-1.1699,48.5311],[-1.2387,48.5378],[-1.2723,48.5339],[-1.2781,48.5101],[-1.3275,48.4981],[-1.3447,48.4731],[-1.3799,48.4561],[-1.4279,48.4619],[-1.4539,48.4878],[-1.49,48.4894],[-1.4952,48.5069],[-1.5345,48.5503],[-1.5189,48.5666],[-1.5372,48.5988],[-1.5711,48.6265]]],[[[-5.1026,48.4361],[-5.0585,48.4524],[-5.0664,48.4819],[-5.1067,48.4718],[-5.134,48.4485],[-5.1026,48.4361]]],[[[-3.4218,47.62],[-3.4151,47.6323],[-3.4849,47.6527],[-3.5114,47.6431],[-3.4626,47.6202],[-3.4218,47.62]]],[[[-3.2354,47.3238],[-3.2184,47.2924],[-3.1738,47.3018],[-3.1362,47.288],[-3.0759,47.2861],[-3.0647,47.3071],[-3.1463,47.3348],[-3.1602,47.3624],[-3.235,47.3794],[-3.2628,47.3621],[-3.2354,47.3238]]]]},"properties":{"code":"53","nom":"Bretagne"}},
{"type":"Feature","geometry":{"type":"MultiPolygon","coordinates":[[[[2.2811,46.4204],[2.1459,46.4243],[2.0742,46.4198],[1.9931,46.4309],[1.9819,46.44],[1.9242,46.432],[1.8546,46.4339],[1.8275,46.4282],[1.7984,46.4548],[1.7543,46.4521],[1.7603,46.4271],[1.727,46.3902],[1.6836,46.4182],[1.645,46.3892],[1.5954,46.4086],[1.5462,46.3935],[1.5441,46.4191],[1.5219,46.4264],[1.5001,46.3988],[1.4654,46.3748],[1.409,46.3613],[1.356,46.4001],[1.3267,46.3957],[1.3031,46.371],[1.2604,46.3788],[1.2196,46.366],[1.1932,46.4098],[1.2127,46.4322],[1.1518,46.4487],[1.1355,46.4709],[1.1459,46.5064],[1.1041,46.5335],[1.0657,46.5399],[1.0229,46.5359],[1.0148,46.5678],[0.9893,46.5654],[0.9159,46.5966],[0.8939,46.6286],[0.9087,46.6486],[0.9095,46.6823],[0.928,46.6954],[0.9132,46.7257],[0.87,46.7454],[0.8163,46.7878],[0.8093,46.8279],[0.7675,46.8515],[0.7043,46.9033],[0.7062,46.9362],[0.6926,46.9743],[0.6369,46.9853],[0.6189,47.0075],[0.5764,47.0045],[0.5783,46.9798],[0.5984,46.9568],[0.4869,46.9543],[0.4387,46.9296],[0.3665,46.9496],[0.3477,46.9366],[0.3112,46.9378],[0.2981,46.9836],[0.3116,46.9963],[0.2982,47.0539],[0.2455,47.0713],[0.208,47.0532],[0.1742,47.0713],[0.201,47.0914],[0.1047,47.1208],[0.0764,47.1239],[0.0538,47.1637],[0.019,47.1758],[-0.0122,47.156],[-0.036,47.1251],[-0.0442,47.0932],[-0.0859,47.101],[-0.1021,47.0648],[-0.179,47.0702],[-0.1521,47.1009],[-0.1795,47.108],[-0.2023,47.0961],[-0.2458,47.1055],[-0.2827,47.1033],[-0.3415,47.0873],[-0.3861,47.0874],[-0.4093,47.0663],[-0.4944,47.0831],[-0.5597,47.0617],[-0.5655,47.0194],[-0.6188,46.9924],[-0.633,46.9975],[-0.7619,46.9921],[-0.7876,47.0051],[-0.8804,46.97],[-0.881,46.9465],[-0.8477,46.9442],[-0.8282,46.9272],[-0.8163,46.8806],[-0.7667,46.8345],[-0.7067,46.8188],[-0.727,46.7664],[-0.694,46.7439],[-0.6562,46.7008],[-0.6807,46.6869],[-0.6375,46.6623],[-0.6491,46.6453],[-0.6151,46.623],[-0.6021,46.5333],[-0.6422,46.5248],[-0.6077,46.4549],[-0.6368,46.4323],[-0.6102,46.4137],[-0.5378,46.3865],[-0.5618,46.3597],[-0.6032,46.3615],[-0.6366,46.3376],[-0.6484,46.3169],[-0.6967,46.3251],[-0.7472,46.3028],[-0.8073,46.3393],[-0.919,46.3126],[-0.9435,46.3366],[-0.9749,46.3511],[-1.0138,46.3556],[-1.0525,46.3425],[-1.0783,46.3169],[-1.1294,46.3103],[-1.1112,46.2613],[-1.175,46.2222],[-1.2239,46.166],[-1.2056,46.1458],[-1.1713,46.1401],[-1.1007,46.0938],[-1.0888,46.054],[-1.0649,46.0491],[-1.0527,46.0112],[-1.0631,45.9944],[-1.0961,45.9839],[-1.0643,45.9499],[-1.0738,45.9142],[-1.1009,45.872],[-1.1214,45.8564],[-1.1637,45.8509],[-1.1321,45.8049],[-1.1852,45.7906],[-1.209,45.7958],[-1.2426,45.7816],[-1.2372,45.7059],[-1.1616,45.6743],[-1.1153,45.6465],[-1.0432,45.6175],[-1.0203,45.6215],[-0.9936,45.5976],[-0.993,45.5772],[-1.0606,45.572],[-1.0965,45.5568],[-1.1003,45.5416],[-1.1388,45.5078],[-1.157,45.4704],[-1.1511,45.4416],[-1.1605,45.4107],[-1.162,45.2997],[-1.1809,45.1761],[-1.2079,44.9622],[-1.2231,44.8625],[-1.2617,44.6477],[-1.2193,44.7104],[-1.1722,44.751],[-1.1619,44.7749],[-1.1182,44.7442],[-1.0513,44.7058],[-1.05,44.682],[-1.0257,44.6769],[-1.0146,44.65],[-1.0811,44.6402],[-1.1397,44.6474],[-1.1635,44.664],[-1.1915,44.6607],[-1.2049,44.6144],[-1.2225,44.5825],[-1.2586,44.5471],[-1.2514,44.4889],[-1.2774,44.3197],[-1.316,44.13],[-1.3713,43.927],[-1.4188,43.7745],[-1.4404,43.69],[-1.4482,43.6423],[-1.4919,43.5723],[-1.5481,43.496],[-1.5954,43.4401],[-1.6288,43.4135],[-1.7398,43.3809],[-1.7923,43.3706],[-1.7892,43.3546],[-1.7523,43.3335],[-1.7297,43.2957],[-1.6685,43.3149],[-1.6226,43.3006],[-1.6304,43.2845],[-1.6087,43.2519],[-1.5766,43.2499],[-1.5574,43.2798],[-1.5319,43.2935],[-1.4388,43.2665],[-1.4132,43.2734],[-1.3827,43.253],[-1.3778,43.2301],[-1.3905,43.1865],[-1.402,43.1779],[-1.4148,43.1279],[-1.4642,43.0975],[-1.4717,43.0811],[-1.4412,43.0463],[-1.3537,43.0282],[-1.3429,43.0545],[-1.3451,43.094],[-1.3206,43.1128],[-1.2992,43.0925],[-1.3093,43.0687],[-1.2472,43.0424],[-1.2302,43.0554],[-1.1807,43.0325],[-1.1125,43.0217],[-1.0708,42.9977],[-1.0166,42.9947],[-1.0005,42.978],[-0.9458,42.9536],[-0.81,42.9514],[-0.7902,42.9638],[-0.7516,42.9669],[-0.724,42.9223],[-0.7236,42.8897],[-0.6763,42.8826],[-0.6551,42.8581],[-0.6036,42.8326],[-0.5905,42.8027],[-0.5297,42.7915],[-0.5103,42.8253],[-0.4435,42.7959],[-0.368,42.8138],[-0.3471,42.8377],[-0.3134,42.8494],[-0.3071,42.87],[-0.3253,42.9044],[-0.2791,42.9392],[-0.2932,42.9927],[-0.2597,43.0137],[-0.2582,43.0382],[-0.2239,43.0337],[-0.1897,43.052],[-0.1992,43.0678],[-0.175,43.1101],[-0.1461,43.1282],[-0.1177,43.1803],[-0.0679,43.1771],[-0.0725,43.2244],[-0.0458,43.2326],[-0.017,43.2704],[-0.0461,43.3009],[-0.0254,43.3296],[0.0103,43.3253],[0.0295,43.3462],[-0.0039,43.3725],[0.0097,43.4222],[-0.0173,43.4411],[-0.0465,43.4098],[-0.0696,43.433],[-0.0584,43.4647],[-0.0304,43.4667],[-0.0401,43.5126],[-0.0644,43.5463],[-0.0889,43.5572],[-0.0968,43.5824],[-0.1646,43.5827],[-0.1788,43.5964],[-0.2423,43.5834],[-0.2472,43.616],[-0.2776,43.6159],[-0.2813,43.643],[-0.2421,43.6551],[-0.2568,43.6832],[-0.2506,43.7078],[-0.1941,43.737],[-0.2223,43.7893],[-0.1945,43.8085],[-0.1986,43.8624],[-0.1905,43.8808],[-0.2189,43.8906],[-0.2177,43.9068],[-0.176,43.9365],[-0.1347,43.9377],[-0.1026,43.9273],[-0.0469,43.9608],[-0.0362,43.9837],[0.0014,43.9599],[0.0055,43.9435],[-0.0203,43.93],[0.0308,43.9006],[0.0693,43.9044],[0.0725,43.9267],[0.0556,43.9614],[0.0855,43.9846],[0.1668,43.9968],[0.214,44.023],[0.2334,44.0089],[0.3037,43.9927],[0.3142,44.0053],[0.4425,44.0288],[0.4595,44.0552],[0.5555,44.0548],[0.5759,44.0759],[0.6012,44.078],[0.6279,44.0606],[0.6626,44.0241],[0.7079,44.0583],[0.7387,44.061],[0.7568,44.1074],[0.7862,44.1119],[0.8189,44.1439],[0.867,44.1264],[0.89,44.1534],[0.8536,44.1748],[0.8617,44.1934],[0.9052,44.1973],[0.9292,44.2303],[0.9191,44.2383],[0.9508,44.2751],[0.9164,44.3022],[0.8896,44.2996],[0.8712,44.3145],[0.8961,44.3462],[0.8873,44.3664],[0.9199,44.3844],[0.9515,44.3616],[1.0493,44.3624],[1.0645,44.3805],[1.0539,44.4319],[1.0282,44.434],[1.0259,44.467],[1.009,44.48],[1.0162,44.5059],[0.9824,44.5455],[1.0102,44.5458],[1.0452,44.5624],[1.1032,44.5717],[1.0946,44.5923],[1.1538,44.6394],[1.1488,44.6703],[1.1815,44.6831],[1.2246,44.6843],[1.2487,44.7081],[1.2986,44.7259],[1.3228,44.765],[1.2985,44.7742],[1.3015,44.7979],[1.3641,44.8116],[1.36,44.8343],[1.4025,44.8501],[1.4126,44.8691],[1.4398,44.875],[1.418,44.9006],[1.4417,44.916],[1.4093,45.006],[1.5401,45.0467],[1.6478,45.0275],[1.7027,44.9878],[1.711,44.9673],[1.7508,44.9557],[1.7749,44.9237],[1.8239,44.9277],[1.8858,44.9579],[1.914,44.979],[1.9391,44.9732],[1.9517,44.9536],[1.9856,44.9746],[2.0454,44.9837],[2.0629,44.9765],[2.1303,44.9842],[2.1422,45.0003],[2.116,45.0222],[2.0952,45.056],[2.1041,45.0668],[2.1572,45.0863],[2.1871,45.1145],[2.1788,45.1363],[2.2085,45.1437],[2.1954,45.2209],[2.2413,45.2494],[2.2714,45.2901],[2.2874,45.2866],[2.3177,45.323],[2.3517,45.3278],[2.3694,45.3865],[2.3975,45.4007],[2.4858,45.379],[2.5233,45.3854],[2.5178,45.4018],[2.4879,45.4198],[2.5068,45.4641],[2.5147,45.5543],[2.4996,45.5542],[2.4612,45.5965],[2.4804,45.6115],[2.4834,45.6393],[2.5165,45.639],[2.5129,45.6713],[2.5287,45.6822],[2.509,45.7242],[2.4355,45.767],[2.4328,45.7866],[2.388,45.8274],[2.4308,45.8359],[2.4477,45.8658],[2.4922,45.864],[2.5288,45.8997],[2.5443,45.9324],[2.5696,45.9588],[2.609,45.9667],[2.5936,45.9898],[2.6025,46.0335],[2.5719,46.0494],[2.5504,46.0861],[2.5473,46.113],[2.5663,46.1438],[2.5598,46.1734],[2.5285,46.1922],[2.5159,46.237],[2.4892,46.2475],[2.4764,46.2808],[2.443,46.295],[2.3919,46.33],[2.3359,46.3233],[2.3028,46.3544],[2.3172,46.3752],[2.2883,46.3821],[2.2811,46.4204]],[[-0.1033,43.3586],[-0.0625,43.3467],[-0.075,43.3071],[-0.1102,43.3122],[-0.0873,43.3338],[-0.1033,43.3586]],[[-0.1031,43.2428],[-0.1213,43.2409],[-0.1385,43.2804],[-0.1115,43.3104],[-0.0797,43.2626],[-0.1031,43.2428]]],[[[-1.4809,46.21],[-1.482,46.2472],[-1.5144,46.2577],[-1.5614,46.2372],[-1.5349,46.2029],[-1.504,46.1937],[-1.4616,46.2021],[-1.3915,46.1772],[-1.3534,46.1545],[-1.3048,46.1429],[-1.2742,46.1602],[-1.2928,46.1874],[-1.3213,46.1872],[-1.3547,46.2061],[-1.4259,46.2051],[-1.4129,46.2301],[-1.4582,46.2287],[-1.4809,46.21]]],[[[-1.2503,45.846],[-1.2364,45.8045],[-1.1954,45.8294],[-1.2077,45.8503],[-1.1888,45.8867],[-1.2338,45.9271],[-1.233,45.9713],[-1.2467,45.9902],[-1.2812,45.9884],[-1.3217,45.9977],[-1.3361,46.0135],[-1.4124,46.0479],[-1.3871,45.9972],[-1.3889,45.9577],[-1.3414,45.9189],[-1.2933,45.8999],[-1.2592,45.8683],[-1.2503,45.846]]]]},"properties":{"code":"75","nom":"Nouvelle-Aquitaine"}},
{"type":"Feature","geometry":{"type":"MultiPolygon","coordinates":[[[[-0.3134,42.8494],[-0.2767,42.8355],[-0.2391,42.8089],[-0.1785,42.7854],[-0.1546,42.7928],[-0.1093,42.7345],[-0.1068,42.7205],[-0.0688,42.7179],[-0.0633,42.6962],[-0.0106,42.6844],[0.0246,42.7025],[0.0482,42.6959],[0.0904,42.7171],[0.1113,42.7102],[0.1757,42.737],[0.2265,42.7173],[0.2527,42.7183],[0.2951,42.6732],[0.3215,42.6841],[0.3251,42.7052],[0.3578,42.7199],[0.3953,42.6996],[0.4363,42.69],[0.5296,42.7027],[0.5892,42.695],[0.6056,42.6994],[0.6684,42.6895],[0.6739,42.7166],[0.6509,42.7781],[0.6706,42.8054],[0.659,42.8385],[0.7084,42.8614],[0.7793,42.8359],[0.8108,42.8387],[0.8583,42.8257],[0.9261,42.7891],[0.9585,42.8039],[0.9914,42.7866],[1.0734,42.7824],[1.1091,42.7708],[1.1327,42.7503],[1.1333,42.7281],[1.1659,42.7087],[1.2291,42.7277],[1.2532,42.7146],[1.3574,42.7194],[1.3512,42.7027],[1.3896,42.6851],[1.3878,42.6684],[1.4137,42.6555],[1.4202,42.6261],[1.4378,42.6032],[1.4773,42.615],[1.4683,42.6308],[1.5006,42.6452],[1.5493,42.6558],[1.5749,42.648],[1.5997,42.6262],[1.6806,42.6248],[1.738,42.6113],[1.7261,42.5897],[1.7732,42.5807],[1.7345,42.5491],[1.7258,42.5036],[1.7633,42.4868],[1.8046,42.4901],[1.8787,42.4612],[1.8841,42.4509],[1.943,42.4441],[1.941,42.4302],[1.9717,42.3738],[2.012,42.3529],[2.0591,42.3578],[2.1125,42.381],[2.1289,42.4125],[2.1661,42.4229],[2.2066,42.4173],[2.2567,42.4384],[2.2913,42.4229],[2.3141,42.4279],[2.3492,42.4068],[2.4125,42.3913],[2.4668,42.3601],[2.4812,42.3406],[2.5421,42.3337],[2.5785,42.3579],[2.6228,42.345],[2.6755,42.3424],[2.6556,42.3884],[2.6739,42.4047],[2.7167,42.4212],[2.7554,42.4257],[2.7702,42.4118],[2.7992,42.4186],[2.8395,42.4593],[2.8703,42.4673],[2.9185,42.4561],[2.9488,42.4795],[2.9889,42.4738],[3.0473,42.4571],[3.0861,42.4252],[3.1208,42.438],[3.1736,42.4359],[3.1551,42.4775],[3.1303,42.4819],[3.1384,42.5151],[3.058,42.5363],[3.0466,42.5673],[3.0354,42.6423],[3.0429,42.8357],[3.0598,42.9162],[3.0405,42.9297],[3.0437,42.9635],[3.0641,43.0192],[3.1172,43.1018],[3.1697,43.1588],[3.2663,43.2307],[3.3508,43.2732],[3.4303,43.2902],[3.5095,43.2717],[3.6026,43.3554],[3.6649,43.3932],[3.7256,43.4012],[3.7249,43.4158],[3.7967,43.441],[3.8512,43.4865],[3.9343,43.5279],[4.007,43.5517],[4.0377,43.5563],[4.101,43.5544],[4.1391,43.5319],[4.1165,43.5083],[4.1272,43.4895],[4.1656,43.4719],[4.2303,43.4602],[4.2397,43.4992],[4.2959,43.5145],[4.3341,43.5355],[4.4007,43.5596],[4.4255,43.5852],[4.4503,43.5836],[4.4752,43.6083],[4.427,43.6207],[4.4513,43.6641],[4.4755,43.6711],[4.4872,43.6992],[4.5369,43.7075],[4.593,43.6875],[4.6233,43.6992],[4.6136,43.7298],[4.6295,43.7619],[4.6512,43.7823],[4.6551,43.8076],[4.6424,43.8314],[4.6663,43.8448],[4.6419,43.8675],[4.6922,43.8842],[4.75,43.9322],[4.779,43.9379],[4.8151,43.9676],[4.816,43.9888],[4.8433,44.0099],[4.7891,44.0522],[4.7549,44.0883],[4.7226,44.0797],[4.7075,44.1037],[4.7221,44.1874],[4.7066,44.2144],[4.6767,44.2126],[4.6748,44.2385],[4.6492,44.2704],[4.6381,44.283],[4.5587,44.3024],[4.5036,44.3401],[4.4509,44.3326],[4.4404,44.2834],[4.4014,44.2877],[4.3896,44.3011],[4.4033,44.3336],[4.3913,44.3469],[4.3357,44.3397],[4.2907,44.3087],[4.2779,44.2752],[4.2579,44.2648],[4.1403,44.3279],[4.0938,44.3345],[4.0515,44.3173],[4.0576,44.3635],[4.0405,44.3913],[4.0684,44.4051],[4.0465,44.4327],[3.9974,44.4605],[3.9881,44.5042],[3.9488,44.5729],[3.9283,44.5705],[3.8943,44.6158],[3.8977,44.6435],[3.8615,44.712],[3.8755,44.7406],[3.8354,44.748],[3.7985,44.7861],[3.7612,44.8019],[3.7346,44.833],[3.6664,44.8288],[3.6577,44.8715],[3.6302,44.8809],[3.5987,44.8621],[3.5866,44.8381],[3.5057,44.8239],[3.487,44.8064],[3.4554,44.8318],[3.4357,44.8802],[3.418,44.9008],[3.4152,44.9416],[3.3714,44.9603],[3.338,44.9559],[3.286,44.9264],[3.2433,44.9317],[3.2278,44.9099],[3.2363,44.8879],[3.1823,44.8637],[3.1411,44.9033],[3.1031,44.8846],[3.1073,44.8673],[3.0853,44.8331],[3.046,44.7978],[3.049,44.7627],[3.0311,44.7494],[3.0391,44.715],[3.0165,44.7144],[2.9956,44.6699],[2.9755,44.6447],[2.9394,44.6776],[2.9245,44.7295],[2.9378,44.7749],[2.9202,44.7943],[2.8928,44.7864],[2.8722,44.8184],[2.8515,44.8718],[2.808,44.8742],[2.7768,44.8886],[2.7719,44.918],[2.7405,44.94],[2.7005,44.9042],[2.6762,44.9039],[2.651,44.8695],[2.6305,44.8728],[2.6027,44.8432],[2.6099,44.826],[2.6,44.7931],[2.5628,44.7779],[2.5506,44.7561],[2.5551,44.7291],[2.5141,44.6931],[2.5001,44.6902],[2.4832,44.6503],[2.4231,44.6441],[2.3801,44.6513],[2.3545,44.6401],[2.3228,44.6686],[2.2342,44.6555],[2.2084,44.6438],[2.2075,44.6155],[2.1687,44.6386],[2.1792,44.6745],[2.1463,44.7204],[2.1718,44.7898],[2.1677,44.811],[2.1353,44.827],[2.0908,44.8757],[2.0859,44.9038],[2.1073,44.9103],[2.0768,44.9419],[2.0629,44.9765],[2.0454,44.9837],[1.9856,44.9746],[1.9517,44.9536],[1.9391,44.9732],[1.914,44.979],[1.8858,44.9579],[1.8239,44.9277],[1.7749,44.9237],[1.7508,44.9557],[1.711,44.9673],[1.7027,44.9878],[1.6478,45.0275],[1.5401,45.0467],[1.4093,45.006],[1.4417,44.916],[1.418,44.9006],[1.4398,44.875],[1.4126,44.8691],[1.4025,44.8501],[1.36,44.8343],[1.3641,44.8116],[1.3015,44.7979],[1.2985,44.7742],[1.3228,44.765],[1.2986,44.7259],[1.2487,44.7081],[1.2246,44.6843],[1.1815,44.6831],[1.1488,44.6703],[1.1538,44.6394],[1.0946,44.5923],[1.1032,44.5717],[1.0452,44.5624],[1.0102,44.5458],[0.9824,44.5455],[1.0162,44.5059],[1.009,44.48],[1.0259,44.467],[1.0282,44.434],[1.0539,44.4319],[1.0645,44.3805],[1.0493,44.3624],[0.9515,44.3616],[0.9199,44.3844],[0.8873,44.3664],[0.8961,44.3462],[0.8712,44.3145],[0.8896,44.2996],[0.9164,44.3022],[0.9508,44.2751],[0.9191,44.2383],[0.9292,44.2303],[0.9052,44.1973],[0.8617,44.1934],[0.8536,44.1748],[0.89,44.1534],[0.867,44.1264],[0.8189,44.1439],[0.7862,44.1119],[0.7568,44.1074],[0.7387,44.061],[0.7079,44.0583],[0.6626,44.0241],[0.6279,44.0606],[0.6012,44.078],[0.5759,44.0759],[0.5555,44.0548],[0.4595,44.0552],[0.4425,44.0288],[0.3142,44.0053],[0.3037,43.9927],[0.2334,44.0089],[0.214,44.023],[0.1668,43.9968],[0.0855,43.9846],[0.0556,43.9614],[0.0725,43.9267],[0.0693,43.9044],[0.0308,43.9006],[-0.0203,43.93],[0.0055,43.9435],[0.0014,43.9599],[-0.0362,43.9837],[-0.0469,43.9608],[-0.1026,43.9273],[-0.1347,43.9377],[-0.176,43.9365],[-0.2177,43.9068],[-0.2189,43.8906],[-0.1905,43.8808],[-0.1986,43.8624],[-0.1945,43.8085],[-0.2223,43.7893],[-0.1941,43.737],[-0.2506,43.7078],[-0.2568,43.6832],[-0.2421,43.6551],[-0.2813,43.643],[-0.2776,43.6159],[-0.2472,43.616],[-0.2423,43.5834],[-0.1788,43.5964],[-0.1646,43.5827],[-0.0968,43.5824],[-0.0889,43.5572],[-0.0644,43.5463],[-0.0401,43.5126],[-0.0304,43.4667],[-0.0584,43.4647],[-0.0696,43.433],[-0.0465,43.4098],[-0.0173,43.4411],[0.0097,43.4222],[-0.0039,43.3725],[0.0295,43.3462],[0.0103,43.3253],[-0.0254,43.3296],[-0.0461,43.3009],[-0.017,43.2704],[-0.0458,43.2326],[-0.0725,43.2244],[-0.0679,43.1771],[-0.1177,43.1803],[-0.1461,43.1282],[-0.175,43.1101],[-0.1992,43.0678],[-0.1897,43.052],[-0.2239,43.0337],[-0.2582,43.0382],[-0.2597,43.0137],[-0.2932,42.9927],[-0.2791,42.9392],[-0.3253,42.9044],[-0.3071,42.87],[-0.3134,42.8494]]],[[[-0.1031,43.2428],[-0.0797,43.2626],[-0.1115,43.3104],[-0.1385,43.2804],[-0.1213,43.2409],[-0.1031,43.2428]]],[[[-0.1033,43.3586],[-0.0873,43.3338],[-0.1102,43.3122],[-0.075,43.3071],[-0.0625,43.3467],[-0.1033,43.3586]]]]},"properties":{"code":"76","nom":"Occitanie"}},
{"type":"Feature","geometry":{"type":"Polygon","coordinates":[[[6.064,46.4162],[6.0282,46.3856],[5.9909,46.365],[5.9409,46.31],[5.9218,46.3122],[5.9092,46.2839],[5.8531,46.2615],[5.7657,46.2683],[5.7252,46.2607],[5.7147,46.3088],[5.6846,46.3109],[5.6493,46.341],[5.6177,46.3291],[5.5974,46.2972],[5.5652,46.2935],[5.542,46.2702],[5.4739,46.2643],[5.4568,46.2745],[5.4753,46.3154],[5.4354,46.3195],[5.4168,46.3453],[5.3735,46.3522],[5.3671,46.3887],[5.307,46.4148],[5.3149,46.4451],[5.2837,46.4456],[5.2255,46.4683],[5.2,46.5075],[5.1727,46.5135],[5.1093,46.4915],[5.0564,46.4839],[5.0014,46.5119],[4.9356,46.5142],[4.9156,46.4889],[4.9158,46.4654],[4.8918,46.4399],[4.8882,46.403],[4.8515,46.3563],[4.8534,46.3299],[4.811,46.2599],[4.7802,46.1767],[4.7273,46.1791],[4.7208,46.2443],[4.6791,46.2599],[4.7104,46.2786],[4.6792,46.3063],[4.6353,46.2993],[4.6186,46.2648],[4.5729,46.2759],[4.504,46.2671],[4.427,46.3028],[4.3975,46.2833],[4.3854,46.2468],[4.3894,46.2133],[4.3457,46.1878],[4.2499,46.1582],[4.2556,46.1858],[4.187,46.1746],[4.1334,46.1773],[4.1038,46.1984],[4.0589,46.1881],[4.0275,46.1694],[3.9859,46.1713],[3.9726,46.2027],[3.9184,46.2029],[3.8901,46.2145],[3.9049,46.2379],[3.8972,46.2925],[3.9313,46.2959],[3.9495,46.3139],[3.984,46.3187],[3.9916,46.3696],[3.9772,46.3992],[3.9961,46.4274],[3.9989,46.4649],[3.9581,46.4906],[3.919,46.4961],[3.8905,46.4813],[3.8618,46.4921],[3.8646,46.5097],[3.8018,46.5199],[3.7691,46.5392],[3.7419,46.5395],[3.7324,46.6049],[3.7139,46.614],[3.697,46.6606],[3.6708,46.6717],[3.6375,46.7084],[3.6201,46.7541],[3.5837,46.7535],[3.598,46.724],[3.5482,46.7062],[3.5612,46.6886],[3.5144,46.6836],[3.4818,46.6507],[3.447,46.6608],[3.4531,46.6901],[3.4182,46.7105],[3.3786,46.7124],[3.3658,46.6896],[3.314,46.6888],[3.3009,46.7163],[3.2698,46.7167],[3.2044,46.6788],[3.1657,46.6917],[3.1298,46.7272],[3.0843,46.7374],[3.0491,46.7581],[3.0321,46.7949],[2.9605,46.8037],[2.8275,46.7353],[2.7859,46.7225],[2.705,46.7394],[2.7009,46.721],[2.6446,46.6904],[2.6286,46.6595],[2.5873,46.6652],[2.5967,46.6372],[2.5757,46.6113],[2.5942,46.5972],[2.615,46.5533],[2.5367,46.5197],[2.4972,46.5215],[2.4829,46.5327],[2.4499,46.5207],[2.3683,46.5184],[2.3055,46.4754],[2.2834,46.4493],[2.2811,46.4204],[2.2883,46.3821],[2.3172,46.3752],[2.3028,46.3544],[2.3359,46.3233],[2.3919,46.33],[2.443,46.295],[2.4764,46.2808],[2.4892,46.2475],[2.5159,46.237],[2.5285,46.1922],[2.5598,46.1734],[2.5663,46.1438],[2.5473,46.113],[2.5504,46.0861],[2.5719,46.0494],[2.6025,46.0335],[2.5936,45.9898],[2.609,45.9667],[2.5696,45.9588],[2.5443,45.9324],[2.5288,45.8997],[2.4922,45.864],[2.4477,45.8658],[2.4308,45.8359],[2.388,45.8274],[2.4328,45.7866],[2.4355,45.767],[2.509,45.7242],[2.5287,45.6822],[2.5129,45.6713],[2.5165,45.639],[2.4834,45.6393],[2.4804,45.6115],[2.4612,45.5965],[2.4996,45.5542],[2.5147,45.5543],[2.5068,45.4641],[2.4879,45.4198],[2.5178,45.4018],[2.5233,45.3854],[2.4858,45.379],[2.3975,45.4007],[2.3694,45.3865],[2.3517,45.3278],[2.3177,45.323],[2.2874,45.2866],[2.2714,45.2901],[2.2413,45.2494],[2.1954,45.2209],[2.2085,45.1437],[2.1788,45.1363],[2.1871,45.1145],[2.1572,45.0863],[2.1041,45.0668],[2.0952,45.056],[2.116,45.0222],[2.1422,45.0003],[2.1303,44.9842],[2.0629,44.9765],[2.0768,44.9419],[2.1073,44.9103],[2.0859,44.9038],[2.0908,44.8757],[2.1353,44.827],[2.1677,44.811],[2.1718,44.7898],[2.1463,44.7204],[2.1792,44.6745],[2.1687,44.6386],[2.2075,44.6155],[2.2084,44.6438],[2.2342,44.6555],[2.3228,44.6686],[2.3545,44.6401],[2.3801,44.6513],[2.4231,44.6441],[2.4832,44.6503],[2.5001,44.6902],[2.5141,44.6931],[2.5551,44.7291],[2.5506,44.7561],[2.5628,44.7779],[2.6,44.7931],[2.6099,44.826],[2.6027,44.8432],[2.6305,44.8728],[2.651,44.8695],[2.6762,44.9039],[2.7005,44.9042],[2.7405,44.94],[2.7719,44.918],[2.7768,44.8886],[2.808,44.8742],[2.8515,44.8718],[2.8722,44.8184],[2.8928,44.7864],[2.9202,44.7943],[2.9378,44.7749],[2.9245,44.7295],[2.9394,44.6776],[2.9755,44.6447],[2.9956,44.6699],[3.0165,44.7144],[3.0391,44.715],[3.0311,44.7494],[3.049,44.7627],[3.046,44.7978],[3.0853,44.8331],[3.1073,44.8673],[3.1031,44.8846],[3.1411,44.9033],[3.1823,44.8637],[3.2363,44.8879],[3.2278,44.9099],[3.2433,44.9317],[3.286,44.9264],[3.338,44.9559],[3.3714,44.9603],[3.4152,44.9416],[3.418,44.9008],[3.4357,44.8802],[3.4554,44.8318],[3.487,44.8064],[3.5057,44.8239],[3.5866,44.8381],[3.5987,44.8621],[3.6302,44.8809],[3.6577,44.8715],[3.6664,44.8288],[3.7346,44.833],[3.7612,44.8019],[3.7985,44.7861],[3.8354,44.748],[3.8755,44.7406],[3.8615,44.712],[3.8977,44.6435],[3.8943,44.6158],[3.9283,44.5705],[3.9488,44.5729],[3.9881,44.5042],[3.9974,44.4605],[4.0465,44.4327],[4.0684,44.4051],[4.0405,44.3913],[4.0576,44.3635],[4.0515,44.3173],[4.0938,44.3345],[4.1403,44.3279],[4.2579,44.2648],[4.2779,44.2752],[4.2907,44.3087],[4.3357,44.3397],[4.3913,44.3469],[4.4033,44.3336],[4.3896,44.3011],[4.4014,44.2877],[4.4404,44.2834],[4.4509,44.3326],[4.5036,44.3401],[4.5587,44.3024],[4.6381,44.283],[4.6492,44.2704],[4.6506,44.3298],[4.679,44.3205],[4.718,44.3269],[4.7797,44.3194],[4.8048,44.2934],[4.8141,44.2323],[4.8267,44.2283],[4.8791,44.2615],[4.9223,44.2598],[4.9815,44.2848],[5.0055,44.2868],[5.0606,44.3081],[5.0765,44.2841],[5.1041,44.2799],[5.1737,44.3084],[5.1495,44.2353],[5.175,44.2208],[5.2382,44.2132],[5.2523,44.2312],[5.3367,44.2044],[5.3553,44.2146],[5.3845,44.2012],[5.3828,44.1605],[5.4377,44.1492],[5.4506,44.1215],[5.4947,44.1154],[5.5414,44.1326],[5.5762,44.188],[5.6021,44.1915],[5.6396,44.1676],[5.6523,44.1854],[5.6845,44.1928],[5.6756,44.2759],[5.6475,44.2725],[5.6396,44.2957],[5.6162,44.3094],[5.6178,44.3323],[5.5374,44.3335],[5.5214,44.3511],[5.4937,44.3379],[5.4383,44.3674],[5.443,44.3912],[5.4342,44.4334],[5.4765,44.4197],[5.4983,44.4373],[5.4644,44.4479],[5.4799,44.4912],[5.5161,44.4917],[5.6034,44.4654],[5.6267,44.4986],[5.6629,44.5053],[5.6274,44.5346],[5.5973,44.5433],[5.6179,44.5839],[5.6462,44.6094],[5.6402,44.6479],[5.6516,44.6552],[5.7211,44.6397],[5.7569,44.6611],[5.7906,44.6533],[5.7994,44.6742],[5.8258,44.6857],[5.8039,44.7059],[5.8293,44.7416],[5.8508,44.7508],[5.919,44.7514],[5.9802,44.7812],[5.9495,44.8045],[6.0055,44.8208],[6.0302,44.8381],[6.067,44.8214],[6.1329,44.8645],[6.1623,44.8543],[6.1964,44.859],[6.25,44.8519],[6.2694,44.8705],[6.3039,44.8731],[6.3241,44.8522],[6.354,44.8535],[6.3508,44.8812],[6.3588,44.9413],[6.3229,44.953],[6.3064,45.0048],[6.2518,44.9967],[6.2039,45.0125],[6.2201,45.0654],[6.2401,45.0677],[6.2289,45.1083],[6.2606,45.1269],[6.2863,45.1102],[6.3379,45.1207],[6.3628,45.1051],[6.3964,45.0611],[6.4862,45.0561],[6.4804,45.0908],[6.5104,45.109],[6.5297,45.0986],[6.5613,45.1053],[6.5765,45.1231],[6.6156,45.1215],[6.63,45.1093],[6.6725,45.1244],[6.6801,45.1401],[6.74,45.1367],[6.768,45.1597],[6.8136,45.1479],[6.8479,45.1272],[6.8944,45.1374],[6.8853,45.1585],[6.9471,45.1708],[6.9658,45.2079],[7.0808,45.2245],[7.1378,45.2569],[7.1152,45.329],[7.1645,45.3607],[7.165,45.3836],[7.1859,45.4032],[7.1522,45.4232],[7.1135,45.4342],[7.0998,45.4694],[7.048,45.4734],[7.0454,45.4975],[7.0003,45.5044],[6.9912,45.5304],[6.997,45.5689],[6.978,45.5872],[6.9872,45.6245],[7.0016,45.6362],[6.9606,45.6549],[6.9296,45.6472],[6.8789,45.6787],[6.8463,45.6902],[6.8084,45.7252],[6.8008,45.7808],[6.8048,45.8156],[6.8189,45.8362],[6.9218,45.8476],[6.9992,45.8737],[7.0183,45.9144],[7.0451,45.9225],[7.0353,45.956],[7.0105,45.9974],[6.9845,46.0054],[6.9502,46.0517],[6.9085,46.0502],[6.8828,46.0951],[6.8999,46.1239],[6.8147,46.1297],[6.7965,46.1386],[6.7927,46.1636],[6.8127,46.1816],[6.8036,46.2031],[6.8524,46.2524],[6.8645,46.283],[6.7867,46.3322],[6.7714,46.3609],[6.8035,46.3763],[6.7935,46.3925],[6.7239,46.408],[6.5881,46.4023],[6.549,46.3949],[6.5131,46.4048],[6.4829,46.3919],[6.4749,46.3748],[6.4131,46.3596],[6.3853,46.3405],[6.3267,46.3716],[6.2767,46.3497],[6.2381,46.281],[6.2666,46.2475],[6.2967,46.2553],[6.2945,46.2249],[6.2342,46.2064],[6.1862,46.1784],[6.1889,46.1663],[6.1266,46.1405],[6.0925,46.1518],[6.052,46.1514],[6.0367,46.1365],[5.9648,46.1451],[5.9953,46.183],[5.9637,46.197],[6.0337,46.2384],[6.0462,46.2312],[6.1243,46.251],[6.1024,46.2849],[6.1198,46.3122],[6.1702,46.3665],[6.0982,46.4088],[6.064,46.4162]],[[4.8929,44.3648],[4.9185,44.4078],[4.9886,44.4232],[5.0156,44.393],[5.0716,44.3775],[5.0233,44.346],[4.9797,44.2975],[4.9222,44.3088],[4.8909,44.3056],[4.8726,44.3502],[4.8929,44.3648]]]},"properties":{"code":"84","nom":"Auvergne-Rhône-Alpes"}},
{"type":"Feature","geometry":{"type":"MultiPolygon","coordinates":[[[[4.2303,43.4602],[4.3876,43.4514],[4.4013,43.4468],[4.4653,43.4572],[4.5473,43.4486],[4.582,43.4306],[4.5877,43.4007],[4.5556,43.3828],[4.5858,43.3601],[4.6591,43.3463],[4.7588,43.35],[4.795,43.345],[4.8387,43.3291],[4.8551,43.3326],[4.8732,43.3611],[4.8484,43.3786],[4.8669,43.4047],[4.9314,43.4332],[4.9677,43.4261],[5.0114,43.368],[5.0237,43.3391],[5.0639,43.3306],[5.1444,43.3265],[5.2241,43.3282],[5.3083,43.3614],[5.3587,43.3257],[5.3625,43.299],[5.3455,43.2816],[5.3747,43.2484],[5.3425,43.2168],[5.3686,43.2073],[5.4045,43.2129],[5.4573,43.2113],[5.4999,43.1969],[5.5302,43.2107],[5.5693,43.1749],[5.5988,43.1642],[5.6242,43.187],[5.6511,43.1882],[5.6941,43.1662],[5.6949,43.1436],[5.781,43.1301],[5.8139,43.1068],[5.8037,43.0767],[5.8288,43.0494],[5.859,43.048],[5.8867,43.077],[5.9171,43.0858],[5.8992,43.113],[6.0055,43.104],[6.0513,43.0789],[6.0862,43.0872],[6.1548,43.0798],[6.201,43.1161],[6.2395,43.1133],[6.2622,43.1211],[6.3591,43.0892],[6.3687,43.137],[6.4036,43.1492],[6.4642,43.1575],[6.4966,43.1512],[6.562,43.1891],[6.6017,43.1821],[6.618,43.1618],[6.6409,43.1752],[6.6643,43.2118],[6.6636,43.238],[6.6976,43.2665],[6.6786,43.2785],[6.5935,43.2623],[6.5839,43.2773],[6.6592,43.3139],[6.6719,43.3358],[6.7166,43.3475],[6.7131,43.367],[6.7334,43.4053],[6.7634,43.4245],[6.789,43.4081],[6.8291,43.4185],[6.8524,43.4107],[6.9184,43.4477],[6.9384,43.5164],[6.9718,43.5455],[7.0266,43.5486],[7.0401,43.5412],[7.0843,43.5695],[7.1218,43.5595],[7.1301,43.6178],[7.1468,43.6452],[7.1677,43.6574],[7.2253,43.6594],[7.2479,43.691],[7.3203,43.6913],[7.3607,43.7223],[7.4058,43.7194],[7.4308,43.7487],[7.4902,43.7672],[7.5302,43.7881],[7.5187,43.8025],[7.4954,43.8644],[7.5014,43.875],[7.5628,43.9019],[7.5666,43.9433],[7.6314,43.9642],[7.6704,43.9983],[7.6623,44.0282],[7.7005,44.0407],[7.7162,44.0813],[7.6672,44.1334],[7.6846,44.174],[7.6366,44.1771],[7.6201,44.1495],[7.5751,44.1532],[7.507,44.1444],[7.4607,44.1258],[7.4298,44.1298],[7.3571,44.1166],[7.3419,44.1459],[7.2814,44.1409],[7.2194,44.1685],[7.1627,44.208],[7.1436,44.2001],[7.0702,44.233],[7.0388,44.2237],[7.0085,44.2352],[6.9957,44.2799],[6.9559,44.2971],[6.9605,44.3109],[6.9272,44.3324],[6.8969,44.3756],[6.8927,44.4203],[6.9364,44.4399],[6.9062,44.4677],[6.8759,44.4825],[6.8582,44.507],[6.8579,44.534],[6.932,44.5727],[6.9338,44.5969],[6.9623,44.6266],[6.9477,44.6537],[6.9871,44.6901],[7.0237,44.6913],[7.0771,44.6809],[7.066,44.7133],[7.0421,44.7186],[7.0213,44.7515],[7.0223,44.7708],[7.0001,44.7886],[7.0196,44.8131],[7.0068,44.8393],[6.9312,44.8635],[6.9132,44.845],[6.8632,44.8506],[6.8034,44.8781],[6.7489,44.9224],[6.7635,44.9712],[6.743,45.0165],[6.6739,45.0196],[6.6588,45.0522],[6.6621,45.0716],[6.63,45.1093],[6.6156,45.1215],[6.5765,45.1231],[6.5613,45.1053],[6.5297,45.0986],[6.5104,45.109],[6.4804,45.0908],[6.4862,45.0561],[6.3964,45.0611],[6.3628,45.1051],[6.3379,45.1207],[6.2863,45.1102],[6.2606,45.1269],[6.2289,45.1083],[6.2401,45.0677],[6.2201,45.0654],[6.2039,45.0125],[6.2518,44.9967],[6.3064,45.0048],[6.3229,44.953],[6.3588,44.9413],[6.3508,44.8812],[6.354,44.8535],[6.3241,44.8522],[6.3039,44.8731],[6.2694,44.8705],[6.25,44.8519],[6.1964,44.859],[6.1623,44.8543],[6.1329,44.8645],[6.067,44.8214],[6.0302,44.8381],[6.0055,44.8208],[5.9495,44.8045],[5.9802,44.7812],[5.919,44.7514],[5.8508,44.7508],[5.8293,44.7416],[5.8039,44.7059],[5.8258,44.6857],[5.7994,44.6742],[5.7906,44.6533],[5.7569,44.6611],[5.7211,44.6397],[5.6516,44.6552],[5.6402,44.6479],[5.6462,44.6094],[5.6179,44.5839],[5.5973,44.5433],[5.6274,44.5346],[5.6629,44.5053],[5.6267,44.4986],[5.6034,44.4654],[5.5161,44.4917],[5.4799,44.4912],[5.4644,44.4479],[5.4983,44.4373],[5.4765,44.4197],[5.4342,44.4334],[5.443,44.3912],[5.4383,44.3674],[5.4937,44.3379],[5.5214,44.3511],[5.5374,44.3335],[5.6178,44.3323],[5.6162,44.3094],[5.6396,44.2957],[5.6475,44.2725],[5.6756,44.2759],[5.6845,44.1928],[5.6523,44.1854],[5.6396,44.1676],[5.6021,44.1915],[5.5762,44.188],[5.5414,44.1326],[5.4947,44.1154],[5.4506,44.1215],[5.4377,44.1492],[5.3828,44.1605],[5.3845,44.2012],[5.3553,44.2146],[5.3367,44.2044],[5.2523,44.2312],[5.2382,44.2132],[5.175,44.2208],[5.1495,44.2353],[5.1737,44.3084],[5.1041,44.2799],[5.0765,44.2841],[5.0606,44.3081],[5.0055,44.2868],[4.9815,44.2848],[4.9223,44.2598],[4.8791,44.2615],[4.8267,44.2283],[4.8141,44.2323],[4.8048,44.2934],[4.7797,44.3194],[4.718,44.3269],[4.679,44.3205],[4.6506,44.3298],[4.6492,44.2704],[4.6748,44.2385],[4.6767,44.2126],[4.7066,44.2144],[4.7221,44.1874],[4.7075,44.1037],[4.7226,44.0797],[4.7549,44.0883],[4.7891,44.0522],[4.8433,44.0099],[4.816,43.9888],[4.8151,43.9676],[4.779,43.9379],[4.75,43.9322],[4.6922,43.8842],[4.6419,43.8675],[4.6663,43.8448],[4.6424,43.8314],[4.6551,43.8076],[4.6512,43.7823],[4.6295,43.7619],[4.6136,43.7298],[4.6233,43.6992],[4.593,43.6875],[4.5369,43.7075],[4.4872,43.6992],[4.4755,43.6711],[4.4513,43.6641],[4.427,43.6207],[4.4752,43.6083],[4.4503,43.5836],[4.4255,43.5852],[4.4007,43.5596],[4.3341,43.5355],[4.2959,43.5145],[4.2397,43.4992],[4.2303,43.4602]],[[5.1181,43.5132],[5.1242,43.484],[5.1459,43.4581],[5.2056,43.492],[5.2187,43.488],[5.2266,43.453],[5.1373,43.4002],[5.0817,43.3997],[5.0578,43.4076],[5.0519,43.4636],[5.006,43.4697],[4.998,43.5009],[5.0141,43.5237],[5.1087,43.5255],[5.1181,43.5132]]],[[[6.2441,43.02],[6.2008,43.0005],[6.2056,42.9818],[6.2508,42.9997],[6.2441,43.02]]],[[[4.8929,44.3648],[4.8726,44.3502],[4.8909,44.3056],[4.9222,44.3088],[4.9797,44.2975],[5.0233,44.346],[5.0716,44.3775],[5.0156,44.393],[4.9886,44.4232],[4.9185,44.4078],[4.8929,44.3648]]]]},"properties":{"code":"93","nom":"Provence-Alpes-Côte d'Azur"}},
{"type":"Feature","geometry":{"type":"Polygon","coordinates":[[[9.4023,41.8587],[9.397,41.8746],[9.4137,41.9151],[9.4138,41.9557],[9.5295,42.0855],[9.55,42.1042],[9.5591,42.1967],[9.5525,42.2331],[9.56,42.2823],[9.5377,42.3436],[9.5325,42.3846],[9.542,42.4214],[9.5411,42.4604],[9.5296,42.4894],[9.5338,42.5421],[9.5162,42.583],[9.4622,42.6401],[9.4462,42.6736],[9.472,42.7708],[9.4913,42.7943],[9.4802,42.8372],[9.4694,42.9363],[9.4516,42.9618],[9.4611,42.9785],[9.441,43.0011],[9.3577,43.0073],[9.3433,42.9988],[9.3542,42.9162],[9.3251,42.9005],[9.3332,42.8635],[9.3096,42.8338],[9.3426,42.7948],[9.3456,42.7433],[9.3213,42.7134],[9.3228,42.697],[9.2844,42.6763],[9.2211,42.7357],[9.1981,42.725],[9.1629,42.7367],[9.1246,42.7316],[9.0536,42.681],[9.0618,42.6646],[9.0104,42.6404],[8.903,42.6271],[8.8792,42.6287],[8.853,42.6108],[8.8026,42.6026],[8.8048,42.5709],[8.7686,42.5558],[8.74,42.5686],[8.7167,42.5506],[8.7183,42.5246],[8.6652,42.5119],[8.6748,42.4763],[8.6551,42.4151],[8.6061,42.4165],[8.6079,42.3936],[8.5734,42.3814],[8.5513,42.3464],[8.6174,42.3477],[8.6255,42.3123],[8.6744,42.2942],[8.6874,42.2627],[8.6209,42.2549],[8.573,42.2386],[8.5401,42.235],[8.5814,42.2059],[8.5935,42.1675],[8.5855,42.1517],[8.6588,42.1075],[8.6903,42.1152],[8.7096,42.0973],[8.7413,42.0409],[8.6579,42.0103],[8.6697,41.9877],[8.6482,41.9684],[8.5921,41.9644],[8.6224,41.9275],[8.6091,41.9096],[8.6713,41.9048],[8.7175,41.9077],[8.7554,41.9323],[8.7858,41.9203],[8.8025,41.8904],[8.7855,41.8769],[8.7906,41.8555],[8.749,41.8112],[8.728,41.7739],[8.6845,41.747],[8.7072,41.7218],[8.7672,41.7404],[8.7721,41.712],[8.8127,41.7141],[8.8434,41.6968],[8.9135,41.691],[8.8813,41.6702],[8.8695,41.6461],[8.8104,41.639],[8.7912,41.6275],[8.7773,41.59],[8.81,41.5555],[8.8429,41.5469],[8.8741,41.5246],[8.9408,41.4894],[8.9653,41.49],[9.1069,41.4294],[9.0912,41.4018],[9.1672,41.3856],[9.1804,41.3662],[9.22,41.3674],[9.2508,41.4099],[9.226,41.4182],[9.2438,41.4468],[9.2847,41.479],[9.275,41.5042],[9.3026,41.5456],[9.3428,41.5594],[9.365,41.596],[9.2878,41.6092],[9.3533,41.6274],[9.3868,41.6601],[9.3723,41.6788],[9.4002,41.693],[9.4081,41.7664],[9.3941,41.7979],[9.406,41.8178],[9.4023,41.8587]]]},"properties":{"code":"94","nom":"Corse"}}
]}